{"type": "FeatureCollection", "features": [{"type": "Feature", "geometry": {"type": "Point", "coordinates": [-3.68917, 40.4669]}, "properties": {"stop_id": "par_4_1", "stop_name": "PLAZA DE CASTILLA", "routes": ["4__1___"], "mode": "metro"}}, {"type": "Feature", "geometry": {"type": "Point", "coordinates": [-3.7011, 40.42619]}, "properties": {"stop_id": "par_4_10", "stop_name": "TRIBUNAL", "routes": ["4__1___"], "mode": "metro"}}, {"type": "Feature", "geometry": {"type": "Point", "coordinates": [-3.7018, 40.42001]}, "properties": {"stop_id": "par_4_11", "stop_name": "GRAN VIA", "routes": ["4__1___"], "mode": "metro"}}, {"type": "Feature", "geometry": {"type": "Point", "coordinates": [-3.70326, 40.41688]}, "properties": {"stop_id": "par_4_12", "stop_name": "SOL", "routes": ["4__1___"], "mode": "metro"}}, {"type": "Feature", "geometry": {"type": "Point", "coordinates": [-3.70466, 40.41235]}, "properties": {"stop_id": "par_4_13", "stop_name": "TIRSO DE MOLINA", "routes": ["4__1___"], "mode": "metro"}}, {"type": "Feature", "geometry": {"type": "Point", "coordinates": [-3.69937, 40.41246]}, "properties": {"stop_id": "par_4_14", "stop_name": "ANTON MARTIN", "routes": ["4__1___"], "mode": "metro"}}, {"type": "Feature", "geometry": {"type": "Point", "coordinates": [-3.69249, 40.40885]}, "properties": {"stop_id": "par_4_15", "stop_name": "ESTACION DEL ARTE", "routes": ["4__1___"], "mode": "metro"}}, {"type": "Feature", "geometry": {"type": "Point", "coordinates": [-3.68938, 40.40659]}, "properties": {"stop_id": "par_4_16", "stop_name": "ATOCHA", "routes": ["4__1___"], "mode": "metro"}}, {"type": "Feature", "geometry": {"type": "Point", "coordinates": [-3.68098, 40.40445]}, "properties": {"stop_id": "par_4_17", "stop_name": "MENENDEZ PELAYO", "routes": ["4__1___"], "mode": "metro"}}, {"type": "Feature", "geometry": {"type": "Point", "coordinates": [-3.67514, 40.40126]}, "properties": {"stop_id": "par_4_18", "stop_name": "PACIFICO", "routes": ["4__1___"], "mode": "metro"}}, {"type": "Feature", "geometry": {"type": "Point", "coordinates": [-3.66906, 40.39819]}, "properties": {"stop_id": "par_4_19", "stop_name": "PUENTE DE VALLECAS", "routes": ["4__1___"], "mode": "metro"}}, {"type": "Feature", "geometry": {"type": "Point", "coordinates": [-3.69506, 40.46442]}, "properties": {"stop_id": "par_4_2", "stop_name": "VALDEACEDERAS", "routes": ["4__1___"], "mode": "metro"}}, {"type": "Feature", "geometry": {"type": "Point", "coordinates": [-3.66414, 40.39554]}, "properties": {"stop_id": "par_4_20", "stop_name": "NUEVA NUMANCIA", "routes": ["4__1___"], "mode": "metro"}}, {"type": "Feature", "geometry": {"type": "Point", "coordinates": [-3.65868, 40.39266]}, "properties": {"stop_id": "par_4_21", "stop_name": "PORTAZGO", "routes": ["4__1___"], "mode": "metro"}}, {"type": "Feature", "geometry": {"type": "Point", "coordinates": [-3.65391, 40.39156]}, "properties": {"stop_id": "par_4_22", "stop_name": "BUENOS AIRES", "routes": ["4__1___"], "mode": "metro"}}, {"type": "Feature", "geometry": {"type": "Point", "coordinates": [-3.64522, 40.38977]}, "properties": {"stop_id": "par_4_23", "stop_name": "ALTO DEL ARENAL", "routes": ["4__1___"], "mode": "metro"}}, {"type": "Feature", "geometry": {"type": "Point", "coordinates": [-3.63951, 40.38732]}, "properties": {"stop_id": "par_4_24", "stop_name": "MIGUEL HERNANDEZ", "routes": ["4__1___"], "mode": "metro"}}, {"type": "Feature", "geometry": {"type": "Point", "coordinates": [-3.62472, 40.38216]}, "properties": {"stop_id": "par_4_25", "stop_name": "SIERRA DE GUADALUPE", "routes": ["4__1___"], "mode": "metro"}}, {"type": "Feature", "geometry": {"type": "Point", "coordinates": [-3.6213, 40.3796]}, "properties": {"stop_id": "par_4_26", "stop_name": "VILLA DE VALLECAS", "routes": ["4__1___"], "mode": "metro"}}, {"type": "Feature", "geometry": {"type": "Point", "coordinates": [-3.68259, 40.47203]}, "properties": {"stop_id": "par_4_261", "stop_name": "CHAMARTIN", "routes": ["4__1___"], "mode": "metro"}}, {"type": "Feature", "geometry": {"type": "Point", "coordinates": [-3.67637, 40.47682]}, "properties": {"stop_id": "par_4_262", "stop_name": "BAMBU", "routes": ["4__1___"], "mode": "metro"}}, {"type": "Feature", "geometry": {"type": "Point", "coordinates": [-3.6668, 40.48014]}, "properties": {"stop_id": "par_4_263", "stop_name": "PINAR DE CHAMARTIN", "routes": ["4__1___"], "mode": "metro"}}, {"type": "Feature", "geometry": {"type": "Point", "coordinates": [-3.61884, 40.37238]}, "properties": {"stop_id": "par_4_27", "stop_name": "CONGOSTO", "routes": ["4__1___"], "mode": "metro"}}, {"type": "Feature", "geometry": {"type": "Point", "coordinates": [-3.61346, 40.37019]}, "properties": {"stop_id": "par_4_293", "stop_name": "LA GAVIA", "routes": ["4__1___"], "mode": "metro"}}, {"type": "Feature", "geometry": {"type": "Point", "coordinates": [-3.59953, 40.36323]}, "properties": {"stop_id": "par_4_294", "stop_name": "LAS SUERTES", "routes": ["4__1___"], "mode": "metro"}}, {"type": "Feature", "geometry": {"type": "Point", "coordinates": [-3.59316, 40.36007]}, "properties": {"stop_id": "par_4_295", "stop_name": "VALDECARROS", "routes": ["4__1___"], "mode": "metro"}}, {"type": "Feature", "geometry": {"type": "Point", "coordinates": [-3.69825, 40.46055]}, "properties": {"stop_id": "par_4_3", "stop_name": "TETUAN", "routes": ["4__1___"], "mode": "metro"}}, {"type": "Feature", "geometry": {"type": "Point", "coordinates": [-3.70302, 40.45429]}, "properties": {"stop_id": "par_4_4", "stop_name": "ESTRECHO", "routes": ["4__1___"], "mode": "metro"}}, {"type": "Feature", "geometry": {"type": "Point", "coordinates": [-3.70331, 40.45033]}, "properties": {"stop_id": "par_4_5", "stop_name": "ALVARADO", "routes": ["4__1___"], "mode": "metro"}}, {"type": "Feature", "geometry": {"type": "Point", "coordinates": [-3.70397, 40.44697]}, "properties": {"stop_id": "par_4_6", "stop_name": "CUATRO CAMINOS", "routes": ["4__1___"], "mode": "metro"}}, {"type": "Feature", "geometry": {"type": "Point", "coordinates": [-3.70133, 40.44198]}, "properties": {"stop_id": "par_4_7", "stop_name": "RIOS ROSAS", "routes": ["4__1___"], "mode": "metro"}}, {"type": "Feature", "geometry": {"type": "Point", "coordinates": [-3.69898, 40.43492]}, "properties": {"stop_id": "par_4_8", "stop_name": "IGLESIA", "routes": ["4__1___"], "mode": "metro"}}, {"type": "Feature", "geometry": {"type": "Point", "coordinates": [-3.70218, 40.42906]}, "properties": {"stop_id": "par_4_9", "stop_name": "BILBAO", "routes": ["4__1___"], "mode": "metro"}}, {"type": "Feature", "geometry": {"type": "Point", "coordinates": [-3.65052, 40.42662]}, "properties": {"stop_id": "par_4_260", "stop_name": "LA ELIPA", "routes": ["4__2___"], "mode": "metro"}}, {"type": "Feature", "geometry": {"type": "Point", "coordinates": [-3.66366, 40.43088]}, "properties": {"stop_id": "par_4_28", "stop_name": "VENTAS", "routes": ["4__2___"], "mode": "metro"}}, {"type": "Feature", "geometry": {"type": "Point", "coordinates": [-3.66926, 40.4279]}, "properties": {"stop_id": "par_4_29", "stop_name": "MANUEL BECERRA", "routes": ["4__2___"], "mode": "metro"}}, {"type": "Feature", "geometry": {"type": "Point", "coordinates": [-3.67591, 40.42455]}, "properties": {"stop_id": "par_4_30", "stop_name": "GOYA", "routes": ["4__2___"], "mode": "metro"}}, {"type": "Feature", "geometry": {"type": "Point", "coordinates": [-3.68012, 40.42294]}, "properties": {"stop_id": "par_4_31", "stop_name": "PRINCIPE DE VERGARA", "routes": ["4__2___"], "mode": "metro"}}, {"type": "Feature", "geometry": {"type": "Point", "coordinates": [-3.68624, 40.42031]}, "properties": {"stop_id": "par_4_32", "stop_name": "RETIRO", "routes": ["4__2___"], "mode": "metro"}}, {"type": "Feature", "geometry": {"type": "Point", "coordinates": [-3.63914, 40.42361]}, "properties": {"stop_id": "par_4_322", "stop_name": "LA ALMUDENA", "routes": ["4__2___"], "mode": "metro"}}, {"type": "Feature", "geometry": {"type": "Point", "coordinates": [-3.62351, 40.41829]}, "properties": {"stop_id": "par_4_323", "stop_name": "ALSACIA", "routes": ["4__2___"], "mode": "metro"}}, {"type": "Feature", "geometry": {"type": "Point", "coordinates": [-3.61206, 40.42239]}, "properties": {"stop_id": "par_4_324", "stop_name": "AVENIDA DE GUADALAJARA", "routes": ["4__2___"], "mode": "metro"}}, {"type": "Feature", "geometry": {"type": "Point", "coordinates": [-3.60331, 40.42375]}, "properties": {"stop_id": "par_4_325", "stop_name": "LAS ROSAS", "routes": ["4__2___"], "mode": "metro"}}, {"type": "Feature", "geometry": {"type": "Point", "coordinates": [-3.69497, 40.41922]}, "properties": {"stop_id": "par_4_33", "stop_name": "BANCO DE ESPAÑA", "routes": ["4__2___"], "mode": "metro"}}, {"type": "Feature", "geometry": {"type": "Point", "coordinates": [-3.69925, 40.41805]}, "properties": {"stop_id": "par_4_34", "stop_name": "SEVILLA", "routes": ["4__2___"], "mode": "metro"}}, {"type": "Feature", "geometry": {"type": "Point", "coordinates": [-3.70326, 40.41685]}, "properties": {"stop_id": "par_4_35", "stop_name": "SOL", "routes": ["4__2___"], "mode": "metro"}}, {"type": "Feature", "geometry": {"type": "Point", "coordinates": [-3.70942, 40.41809]}, "properties": {"stop_id": "par_4_36", "stop_name": "OPERA", "routes": ["4__2___"], "mode": "metro"}}, {"type": "Feature", "geometry": {"type": "Point", "coordinates": [-3.70796, 40.42132]}, "properties": {"stop_id": "par_4_37", "stop_name": "SANTO DOMINGO", "routes": ["4__2___"], "mode": "metro"}}, {"type": "Feature", "geometry": {"type": "Point", "coordinates": [-3.70742, 40.42484]}, "properties": {"stop_id": "par_4_38", "stop_name": "NOVICIADO", "routes": ["4__2___"], "mode": "metro"}}, {"type": "Feature", "geometry": {"type": "Point", "coordinates": [-3.70557, 40.43001]}, "properties": {"stop_id": "par_4_39", "stop_name": "SAN BERNARDO", "routes": ["4__2___"], "mode": "metro"}}, {"type": "Feature", "geometry": {"type": "Point", "coordinates": [-3.70433, 40.43322]}, "properties": {"stop_id": "par_4_40", "stop_name": "QUEVEDO", "routes": ["4__2___"], "mode": "metro"}}, {"type": "Feature", "geometry": {"type": "Point", "coordinates": [-3.70433, 40.43841]}, "properties": {"stop_id": "par_4_41", "stop_name": "CANAL", "routes": ["4__2___"], "mode": "metro"}}, {"type": "Feature", "geometry": {"type": "Point", "coordinates": [-3.70392, 40.44697]}, "properties": {"stop_id": "par_4_42", "stop_name": "CUATRO CAMINOS", "routes": ["4__2___"], "mode": "metro"}}, {"type": "Feature", "geometry": {"type": "Point", "coordinates": [-3.69788, 40.38409]}, "properties": {"stop_id": "par_4_267", "stop_name": "ALMENDRALES", "routes": ["4__3___"], "mode": "metro"}}, {"type": "Feature", "geometry": {"type": "Point", "coordinates": [-3.69585, 40.37503]}, "properties": {"stop_id": "par_4_268", "stop_name": "HOSPITAL 12 DE OCTUBRE", "routes": ["4__3___"], "mode": "metro"}}, {"type": "Feature", "geometry": {"type": "Point", "coordinates": [-3.69418, 40.36999]}, "properties": {"stop_id": "par_4_269", "stop_name": "SAN FERMIN-ORCASUR", "routes": ["4__3___"], "mode": "metro"}}, {"type": "Feature", "geometry": {"type": "Point", "coordinates": [-3.69363, 40.35959]}, "properties": {"stop_id": "par_4_270", "stop_name": "CIUDAD DE LOS ANGELES", "routes": ["4__3___"], "mode": "metro"}}, {"type": "Feature", "geometry": {"type": "Point", "coordinates": [-3.69265, 40.35089]}, "properties": {"stop_id": "par_4_271", "stop_name": "VILLAVERDE BAJO CRUCE", "routes": ["4__3___"], "mode": "metro"}}, {"type": "Feature", "geometry": {"type": "Point", "coordinates": [-3.69318, 40.34154]}, "properties": {"stop_id": "par_4_272", "stop_name": "SAN CRISTOBAL", "routes": ["4__3___"], "mode": "metro"}}, {"type": "Feature", "geometry": {"type": "Point", "coordinates": [-3.71199, 40.34123]}, "properties": {"stop_id": "par_4_273", "stop_name": "VILLAVERDE ALTO", "routes": ["4__3___"], "mode": "metro"}}, {"type": "Feature", "geometry": {"type": "Point", "coordinates": [-3.69511, 40.39116]}, "properties": {"stop_id": "par_4_43", "stop_name": "LEGAZPI", "routes": ["4__3___"], "mode": "metro"}}, {"type": "Feature", "geometry": {"type": "Point", "coordinates": [-3.6942, 40.3999]}, "properties": {"stop_id": "par_4_44", "stop_name": "DELICIAS", "routes": ["4__3___"], "mode": "metro"}}, {"type": "Feature", "geometry": {"type": "Point", "coordinates": [-3.69423, 40.40307]}, "properties": {"stop_id": "par_4_45", "stop_name": "PALOS DE LA FRONTERA", "routes": ["4__3___"], "mode": "metro"}}, {"type": "Feature", "geometry": {"type": "Point", "coordinates": [-3.70268, 40.40513]}, "properties": {"stop_id": "par_4_46", "stop_name": "EMBAJADORES", "routes": ["4__3___"], "mode": "metro"}}, {"type": "Feature", "geometry": {"type": "Point", "coordinates": [-3.7009, 40.40851]}, "properties": {"stop_id": "par_4_47", "stop_name": "LAVAPIES", "routes": ["4__3___"], "mode": "metro"}}, {"type": "Feature", "geometry": {"type": "Point", "coordinates": [-3.70326, 40.41682]}, "properties": {"stop_id": "par_4_48", "stop_name": "SOL", "routes": ["4__3___"], "mode": "metro"}}, {"type": "Feature", "geometry": {"type": "Point", "coordinates": [-3.70566, 40.42014]}, "properties": {"stop_id": "par_4_49", "stop_name": "CALLAO", "routes": ["4__3___"], "mode": "metro"}}, {"type": "Feature", "geometry": {"type": "Point", "coordinates": [-3.7112, 40.42342]}, "properties": {"stop_id": "par_4_50", "stop_name": "PLAZA DE ESPAÑA", "routes": ["4__3___"], "mode": "metro"}}, {"type": "Feature", "geometry": {"type": "Point", "coordinates": [-3.71341, 40.42709]}, "properties": {"stop_id": "par_4_51", "stop_name": "VENTURA RODRIGUEZ", "routes": ["4__3___"], "mode": "metro"}}, {"type": "Feature", "geometry": {"type": "Point", "coordinates": [-3.71596, 40.43066]}, "properties": {"stop_id": "par_4_52", "stop_name": "ARGÜELLES", "routes": ["4__3___"], "mode": "metro"}}, {"type": "Feature", "geometry": {"type": "Point", "coordinates": [-3.71945, 40.43502]}, "properties": {"stop_id": "par_4_53", "stop_name": "MONCLOA", "routes": ["4__3___"], "mode": "metro"}}, {"type": "Feature", "geometry": {"type": "Point", "coordinates": [-3.65257, 40.47537]}, "properties": {"stop_id": "par_4_264", "stop_name": "HORTALEZA", "routes": ["4__4___"], "mode": "metro"}}, {"type": "Feature", "geometry": {"type": "Point", "coordinates": [-3.6629, 40.47687]}, "properties": {"stop_id": "par_4_265", "stop_name": "MANOTERAS", "routes": ["4__4___"], "mode": "metro"}}, {"type": "Feature", "geometry": {"type": "Point", "coordinates": [-3.66676, 40.48014]}, "properties": {"stop_id": "par_4_266", "stop_name": "PINAR DE CHAMARTIN", "routes": ["4__4___"], "mode": "metro"}}, {"type": "Feature", "geometry": {"type": "Point", "coordinates": [-3.71596, 40.4306]}, "properties": {"stop_id": "par_4_54", "stop_name": "ARGÜELLES", "routes": ["4__4___"], "mode": "metro"}}, {"type": "Feature", "geometry": {"type": "Point", "coordinates": [-3.70567, 40.42966]}, "properties": {"stop_id": "par_4_55", "stop_name": "SAN BERNARDO", "routes": ["4__4___"], "mode": "metro"}}, {"type": "Feature", "geometry": {"type": "Point", "coordinates": [-3.70114, 40.42885]}, "properties": {"stop_id": "par_4_56", "stop_name": "BILBAO", "routes": ["4__4___"], "mode": "metro"}}, {"type": "Feature", "geometry": {"type": "Point", "coordinates": [-3.69594, 40.42772]}, "properties": {"stop_id": "par_4_57", "stop_name": "ALONSO MARTINEZ", "routes": ["4__4___"], "mode": "metro"}}, {"type": "Feature", "geometry": {"type": "Point", "coordinates": [-3.69101, 40.42542]}, "properties": {"stop_id": "par_4_58", "stop_name": "COLON", "routes": ["4__4___"], "mode": "metro"}}, {"type": "Feature", "geometry": {"type": "Point", "coordinates": [-3.68663, 40.42543]}, "properties": {"stop_id": "par_4_59", "stop_name": "SERRANO", "routes": ["4__4___"], "mode": "metro"}}, {"type": "Feature", "geometry": {"type": "Point", "coordinates": [-3.68292, 40.42503]}, "properties": {"stop_id": "par_4_60", "stop_name": "VELAZQUEZ", "routes": ["4__4___"], "mode": "metro"}}, {"type": "Feature", "geometry": {"type": "Point", "coordinates": [-3.67685, 40.42481]}, "properties": {"stop_id": "par_4_61", "stop_name": "GOYA", "routes": ["4__4___"], "mode": "metro"}}, {"type": "Feature", "geometry": {"type": "Point", "coordinates": [-3.67541, 40.42917]}, "properties": {"stop_id": "par_4_62", "stop_name": "LISTA", "routes": ["4__4___"], "mode": "metro"}}, {"type": "Feature", "geometry": {"type": "Point", "coordinates": [-3.67495, 40.43468]}, "properties": {"stop_id": "par_4_63", "stop_name": "DIEGO DE LEON", "routes": ["4__4___"], "mode": "metro"}}, {"type": "Feature", "geometry": {"type": "Point", "coordinates": [-3.67664, 40.43803]}, "properties": {"stop_id": "par_4_64", "stop_name": "AVENIDA DE AMERICA", "routes": ["4__4___"], "mode": "metro"}}, {"type": "Feature", "geometry": {"type": "Point", "coordinates": [-3.67482, 40.44419]}, "properties": {"stop_id": "par_4_65", "stop_name": "PROSPERIDAD", "routes": ["4__4___"], "mode": "metro"}}, {"type": "Feature", "geometry": {"type": "Point", "coordinates": [-3.66791, 40.44825]}, "properties": {"stop_id": "par_4_66", "stop_name": "ALFONSO XIII", "routes": ["4__4___"], "mode": "metro"}}, {"type": "Feature", "geometry": {"type": "Point", "coordinates": [-3.66118, 40.45354]}, "properties": {"stop_id": "par_4_67", "stop_name": "AVENIDA DE LA PAZ", "routes": ["4__4___"], "mode": "metro"}}, {"type": "Feature", "geometry": {"type": "Point", "coordinates": [-3.65618, 40.45583]}, "properties": {"stop_id": "par_4_68", "stop_name": "ARTURO SORIA", "routes": ["4__4___"], "mode": "metro"}}, {"type": "Feature", "geometry": {"type": "Point", "coordinates": [-3.64582, 40.45945]}, "properties": {"stop_id": "par_4_69", "stop_name": "ESPERANZA", "routes": ["4__4___"], "mode": "metro"}}, {"type": "Feature", "geometry": {"type": "Point", "coordinates": [-3.6356, 40.46381]}, "properties": {"stop_id": "par_4_70", "stop_name": "CANILLAS", "routes": ["4__4___"], "mode": "metro"}}, {"type": "Feature", "geometry": {"type": "Point", "coordinates": [-3.63832, 40.46943]}, "properties": {"stop_id": "par_4_71", "stop_name": "MAR DE CRISTAL", "routes": ["4__4___"], "mode": "metro"}}, {"type": "Feature", "geometry": {"type": "Point", "coordinates": [-3.63958, 40.47447]}, "properties": {"stop_id": "par_4_72", "stop_name": "SAN LORENZO", "routes": ["4__4___"], "mode": "metro"}}, {"type": "Feature", "geometry": {"type": "Point", "coordinates": [-3.64524, 40.47711]}, "properties": {"stop_id": "par_4_73", "stop_name": "PARQUE DE SANTA MARIA", "routes": ["4__4___"], "mode": "metro"}}, {"type": "Feature", "geometry": {"type": "Point", "coordinates": [-3.7608, 40.38563]}, "properties": {"stop_id": "par_4_100", "stop_name": "ALUCHE", "routes": ["4__5___"], "mode": "metro"}}, {"type": "Feature", "geometry": {"type": "Point", "coordinates": [-3.76535, 40.39057]}, "properties": {"stop_id": "par_4_101", "stop_name": "EMPALME", "routes": ["4__5___"], "mode": "metro"}}, {"type": "Feature", "geometry": {"type": "Point", "coordinates": [-3.76813, 40.39481]}, "properties": {"stop_id": "par_4_102", "stop_name": "CAMPAMENTO", "routes": ["4__5___"], "mode": "metro"}}, {"type": "Feature", "geometry": {"type": "Point", "coordinates": [-3.76101, 40.40324]}, "properties": {"stop_id": "par_4_103", "stop_name": "CASA DE CAMPO", "routes": ["4__5___"], "mode": "metro"}}, {"type": "Feature", "geometry": {"type": "Point", "coordinates": [-3.58752, 40.45779]}, "properties": {"stop_id": "par_4_252", "stop_name": "ALAMEDA DE OSUNA", "routes": ["4__5___"], "mode": "metro"}}, {"type": "Feature", "geometry": {"type": "Point", "coordinates": [-3.59401, 40.45347]}, "properties": {"stop_id": "par_4_253", "stop_name": "EL CAPRICHO", "routes": ["4__5___"], "mode": "metro"}}, {"type": "Feature", "geometry": {"type": "Point", "coordinates": [-3.60816, 40.44942]}, "properties": {"stop_id": "par_4_74", "stop_name": "CANILLEJAS", "routes": ["4__5___"], "mode": "metro"}}, {"type": "Feature", "geometry": {"type": "Point", "coordinates": [-3.61699, 40.44374]}, "properties": {"stop_id": "par_4_75", "stop_name": "TORRE ARIAS", "routes": ["4__5___"], "mode": "metro"}}, {"type": "Feature", "geometry": {"type": "Point", "coordinates": [-3.62684, 40.44085]}, "properties": {"stop_id": "par_4_76", "stop_name": "SUANZES", "routes": ["4__5___"], "mode": "metro"}}, {"type": "Feature", "geometry": {"type": "Point", "coordinates": [-3.63816, 40.43805]}, "properties": {"stop_id": "par_4_77", "stop_name": "CIUDAD LINEAL", "routes": ["4__5___"], "mode": "metro"}}, {"type": "Feature", "geometry": {"type": "Point", "coordinates": [-3.64282, 40.43569]}, "properties": {"stop_id": "par_4_78", "stop_name": "PUEBLO NUEVO", "routes": ["4__5___"], "mode": "metro"}}, {"type": "Feature", "geometry": {"type": "Point", "coordinates": [-3.64736, 40.43358]}, "properties": {"stop_id": "par_4_79", "stop_name": "QUINTANA", "routes": ["4__5___"], "mode": "metro"}}, {"type": "Feature", "geometry": {"type": "Point", "coordinates": [-3.65757, 40.43189]}, "properties": {"stop_id": "par_4_80", "stop_name": "EL CARMEN", "routes": ["4__5___"], "mode": "metro"}}, {"type": "Feature", "geometry": {"type": "Point", "coordinates": [-3.66361, 40.43088]}, "properties": {"stop_id": "par_4_81", "stop_name": "VENTAS", "routes": ["4__5___"], "mode": "metro"}}, {"type": "Feature", "geometry": {"type": "Point", "coordinates": [-3.67426, 40.43235]}, "properties": {"stop_id": "par_4_82", "stop_name": "DIEGO DE LEON", "routes": ["4__5___"], "mode": "metro"}}, {"type": "Feature", "geometry": {"type": "Point", "coordinates": [-3.68258, 40.43278]}, "properties": {"stop_id": "par_4_83", "stop_name": "NUÑEZ DE BALBOA", "routes": ["4__5___"], "mode": "metro"}}, {"type": "Feature", "geometry": {"type": "Point", "coordinates": [-3.68954, 40.43316]}, "properties": {"stop_id": "par_4_84", "stop_name": "RUBEN DARIO", "routes": ["4__5___"], "mode": "metro"}}, {"type": "Feature", "geometry": {"type": "Point", "coordinates": [-3.69502, 40.42828]}, "properties": {"stop_id": "par_4_85", "stop_name": "ALONSO MARTINEZ", "routes": ["4__5___"], "mode": "metro"}}, {"type": "Feature", "geometry": {"type": "Point", "coordinates": [-3.69762, 40.42293]}, "properties": {"stop_id": "par_4_86", "stop_name": "CHUECA", "routes": ["4__5___"], "mode": "metro"}}, {"type": "Feature", "geometry": {"type": "Point", "coordinates": [-3.7018, 40.41999]}, "properties": {"stop_id": "par_4_87", "stop_name": "GRAN VIA", "routes": ["4__5___"], "mode": "metro"}}, {"type": "Feature", "geometry": {"type": "Point", "coordinates": [-3.70566, 40.42008]}, "properties": {"stop_id": "par_4_88", "stop_name": "CALLAO", "routes": ["4__5___"], "mode": "metro"}}, {"type": "Feature", "geometry": {"type": "Point", "coordinates": [-3.70935, 40.41809]}, "properties": {"stop_id": "par_4_89", "stop_name": "OPERA", "routes": ["4__5___"], "mode": "metro"}}, {"type": "Feature", "geometry": {"type": "Point", "coordinates": [-3.70816, 40.41128]}, "properties": {"stop_id": "par_4_90", "stop_name": "LA LATINA", "routes": ["4__5___"], "mode": "metro"}}, {"type": "Feature", "geometry": {"type": "Point", "coordinates": [-3.71105, 40.40704]}, "properties": {"stop_id": "par_4_91", "stop_name": "PUERTA DE TOLEDO", "routes": ["4__5___"], "mode": "metro"}}, {"type": "Feature", "geometry": {"type": "Point", "coordinates": [-3.70664, 40.40387]}, "properties": {"stop_id": "par_4_92", "stop_name": "ACACIAS", "routes": ["4__5___"], "mode": "metro"}}, {"type": "Feature", "geometry": {"type": "Point", "coordinates": [-3.71138, 40.4026]}, "properties": {"stop_id": "par_4_93", "stop_name": "PIRAMIDES", "routes": ["4__5___"], "mode": "metro"}}, {"type": "Feature", "geometry": {"type": "Point", "coordinates": [-3.71596, 40.39736]}, "properties": {"stop_id": "par_4_94", "stop_name": "MARQUES DE VADILLO", "routes": ["4__5___"], "mode": "metro"}}, {"type": "Feature", "geometry": {"type": "Point", "coordinates": [-3.7236, 40.39335]}, "properties": {"stop_id": "par_4_95", "stop_name": "URGEL", "routes": ["4__5___"], "mode": "metro"}}, {"type": "Feature", "geometry": {"type": "Point", "coordinates": [-3.73132, 40.38846]}, "properties": {"stop_id": "par_4_96", "stop_name": "OPORTO", "routes": ["4__5___"], "mode": "metro"}}, {"type": "Feature", "geometry": {"type": "Point", "coordinates": [-3.73982, 40.38885]}, "properties": {"stop_id": "par_4_97", "stop_name": "VISTA ALEGRE", "routes": ["4__5___"], "mode": "metro"}}, {"type": "Feature", "geometry": {"type": "Point", "coordinates": [-3.74487, 40.38783]}, "properties": {"stop_id": "par_4_98", "stop_name": "CARABANCHEL", "routes": ["4__5___"], "mode": "metro"}}, {"type": "Feature", "geometry": {"type": "Point", "coordinates": [-3.75121, 40.38439]}, "properties": {"stop_id": "par_4_99", "stop_name": "EUGENIA DE MONTIJO", "routes": ["4__5___"], "mode": "metro"}}, {"type": "Feature", "geometry": {"type": "Point", "coordinates": [-3.74429, 40.39923]}, "properties": {"stop_id": "par_4_104", "stop_name": "LAGUNA", "routes": ["4__6___"], "mode": "metro"}}, {"type": "Feature", "geometry": {"type": "Point", "coordinates": [-3.74099, 40.3927]}, "properties": {"stop_id": "par_4_105", "stop_name": "CARPETANA", "routes": ["4__6___"], "mode": "metro"}}, {"type": "Feature", "geometry": {"type": "Point", "coordinates": [-3.73126, 40.38847]}, "properties": {"stop_id": "par_4_106", "stop_name": "OPORTO", "routes": ["4__6___"], "mode": "metro"}}, {"type": "Feature", "geometry": {"type": "Point", "coordinates": [-3.72313, 40.3869]}, "properties": {"stop_id": "par_4_107", "stop_name": "OPAÑEL", "routes": ["4__6___"], "mode": "metro"}}, {"type": "Feature", "geometry": {"type": "Point", "coordinates": [-3.71837, 40.3846]}, "properties": {"stop_id": "par_4_108", "stop_name": "PLAZA ELIPTICA", "routes": ["4__6___"], "mode": "metro"}}, {"type": "Feature", "geometry": {"type": "Point", "coordinates": [-3.7069, 40.3871]}, "properties": {"stop_id": "par_4_109", "stop_name": "USERA", "routes": ["4__6___"], "mode": "metro"}}, {"type": "Feature", "geometry": {"type": "Point", "coordinates": [-3.69505, 40.39116]}, "properties": {"stop_id": "par_4_110", "stop_name": "LEGAZPI", "routes": ["4__6___"], "mode": "metro"}}, {"type": "Feature", "geometry": {"type": "Point", "coordinates": [-3.67814, 40.39538]}, "properties": {"stop_id": "par_4_111", "stop_name": "MENDEZ ALVARO", "routes": ["4__6___"], "mode": "metro"}}, {"type": "Feature", "geometry": {"type": "Point", "coordinates": [-3.67386, 40.40207]}, "properties": {"stop_id": "par_4_112", "stop_name": "PACIFICO", "routes": ["4__6___"], "mode": "metro"}}, {"type": "Feature", "geometry": {"type": "Point", "coordinates": [-3.67041, 40.40697]}, "properties": {"stop_id": "par_4_113", "stop_name": "CONDE DE CASAL", "routes": ["4__6___"], "mode": "metro"}}, {"type": "Feature", "geometry": {"type": "Point", "coordinates": [-3.66951, 40.41507]}, "properties": {"stop_id": "par_4_114", "stop_name": "SAINZ DE BARANDA", "routes": ["4__6___"], "mode": "metro"}}, {"type": "Feature", "geometry": {"type": "Point", "coordinates": [-3.6686, 40.42289]}, "properties": {"stop_id": "par_4_115", "stop_name": "ODONNELL", "routes": ["4__6___"], "mode": "metro"}}, {"type": "Feature", "geometry": {"type": "Point", "coordinates": [-3.66921, 40.4279]}, "properties": {"stop_id": "par_4_116", "stop_name": "MANUEL BECERRA", "routes": ["4__6___"], "mode": "metro"}}, {"type": "Feature", "geometry": {"type": "Point", "coordinates": [-3.67294, 40.43295]}, "properties": {"stop_id": "par_4_117", "stop_name": "DIEGO DE LEON", "routes": ["4__6___"], "mode": "metro"}}, {"type": "Feature", "geometry": {"type": "Point", "coordinates": [-3.67658, 40.43804]}, "properties": {"stop_id": "par_4_118", "stop_name": "AVENIDA DE AMERICA", "routes": ["4__6___"], "mode": "metro"}}, {"type": "Feature", "geometry": {"type": "Point", "coordinates": [-3.68406, 40.44379]}, "properties": {"stop_id": "par_4_119", "stop_name": "REPUBLICA ARGENTINA", "routes": ["4__6___"], "mode": "metro"}}, {"type": "Feature", "geometry": {"type": "Point", "coordinates": [-3.69241, 40.44662]}, "properties": {"stop_id": "par_4_120", "stop_name": "NUEVOS MINISTERIOS", "routes": ["4__6___"], "mode": "metro"}}, {"type": "Feature", "geometry": {"type": "Point", "coordinates": [-3.70387, 40.44697]}, "properties": {"stop_id": "par_4_121", "stop_name": "CUATRO CAMINOS", "routes": ["4__6___"], "mode": "metro"}}, {"type": "Feature", "geometry": {"type": "Point", "coordinates": [-3.71229, 40.44637]}, "properties": {"stop_id": "par_4_122", "stop_name": "GUZMAN EL BUENO", "routes": ["4__6___"], "mode": "metro"}}, {"type": "Feature", "geometry": {"type": "Point", "coordinates": [-3.71943, 40.44644]}, "properties": {"stop_id": "par_4_123", "stop_name": "VICENTE ALEIXANDRE", "routes": ["4__6___"], "mode": "metro"}}, {"type": "Feature", "geometry": {"type": "Point", "coordinates": [-3.72678, 40.44356]}, "properties": {"stop_id": "par_4_124", "stop_name": "CIUDAD UNIVERSITARIA", "routes": ["4__6___"], "mode": "metro"}}, {"type": "Feature", "geometry": {"type": "Point", "coordinates": [-3.71945, 40.43497]}, "properties": {"stop_id": "par_4_125", "stop_name": "MONCLOA", "routes": ["4__6___"], "mode": "metro"}}, {"type": "Feature", "geometry": {"type": "Point", "coordinates": [-3.71596, 40.43053]}, "properties": {"stop_id": "par_4_126", "stop_name": "ARGÜELLES", "routes": ["4__6___"], "mode": "metro"}}, {"type": "Feature", "geometry": {"type": "Point", "coordinates": [-3.72032, 40.42107]}, "properties": {"stop_id": "par_4_127", "stop_name": "PRINCIPE PIO", "routes": ["4__6___"], "mode": "metro"}}, {"type": "Feature", "geometry": {"type": "Point", "coordinates": [-3.72724, 40.4139]}, "properties": {"stop_id": "par_4_128", "stop_name": "PUERTA DEL ANGEL", "routes": ["4__6___"], "mode": "metro"}}, {"type": "Feature", "geometry": {"type": "Point", "coordinates": [-3.73894, 40.40993]}, "properties": {"stop_id": "par_4_129", "stop_name": "ALTO DE EXTREMADURA", "routes": ["4__6___"], "mode": "metro"}}, {"type": "Feature", "geometry": {"type": "Point", "coordinates": [-3.74534, 40.4051]}, "properties": {"stop_id": "par_4_130", "stop_name": "LUCERO", "routes": ["4__6___"], "mode": "metro"}}, {"type": "Feature", "geometry": {"type": "Point", "coordinates": [-3.68864, 40.3931]}, "properties": {"stop_id": "par_4_259", "stop_name": "ARGANZUELA-PLANETARIO", "routes": ["4__6___"], "mode": "metro"}}, {"type": "Feature", "geometry": {"type": "Point", "coordinates": [-3.60788, 40.43299]}, "properties": {"stop_id": "par_4_132", "stop_name": "LAS MUSAS", "routes": ["4__7___"], "mode": "metro"}}, {"type": "Feature", "geometry": {"type": "Point", "coordinates": [-3.61547, 40.42799]}, "properties": {"stop_id": "par_4_133", "stop_name": "SAN BLAS", "routes": ["4__7___"], "mode": "metro"}}, {"type": "Feature", "geometry": {"type": "Point", "coordinates": [-3.62572, 40.42799]}, "properties": {"stop_id": "par_4_134", "stop_name": "SIMANCAS", "routes": ["4__7___"], "mode": "metro"}}, {"type": "Feature", "geometry": {"type": "Point", "coordinates": [-3.6333, 40.42842]}, "properties": {"stop_id": "par_4_135", "stop_name": "GARCIA NOBLEJAS", "routes": ["4__7___"], "mode": "metro"}}, {"type": "Feature", "geometry": {"type": "Point", "coordinates": [-3.64106, 40.43021]}, "properties": {"stop_id": "par_4_136", "stop_name": "ASCAO", "routes": ["4__7___"], "mode": "metro"}}, {"type": "Feature", "geometry": {"type": "Point", "coordinates": [-3.64282, 40.43566]}, "properties": {"stop_id": "par_4_137", "stop_name": "PUEBLO NUEVO", "routes": ["4__7___"], "mode": "metro"}}, {"type": "Feature", "geometry": {"type": "Point", "coordinates": [-3.652, 40.4391]}, "properties": {"stop_id": "par_4_138", "stop_name": "BARRIO DE LA CONCEPCION", "routes": ["4__7___"], "mode": "metro"}}, {"type": "Feature", "geometry": {"type": "Point", "coordinates": [-3.66297, 40.43945]}, "properties": {"stop_id": "par_4_139", "stop_name": "PARQUE DE LAS AVENIDAS", "routes": ["4__7___"], "mode": "metro"}}, {"type": "Feature", "geometry": {"type": "Point", "coordinates": [-3.67215, 40.43934]}, "properties": {"stop_id": "par_4_140", "stop_name": "CARTAGENA", "routes": ["4__7___"], "mode": "metro"}}, {"type": "Feature", "geometry": {"type": "Point", "coordinates": [-3.67653, 40.43804]}, "properties": {"stop_id": "par_4_141", "stop_name": "AVENIDA DE AMERICA", "routes": ["4__7___"], "mode": "metro"}}, {"type": "Feature", "geometry": {"type": "Point", "coordinates": [-3.69148, 40.43825]}, "properties": {"stop_id": "par_4_142", "stop_name": "GREGORIO MARAÑON", "routes": ["4__7___"], "mode": "metro"}}, {"type": "Feature", "geometry": {"type": "Point", "coordinates": [-3.69925, 40.43838]}, "properties": {"stop_id": "par_4_143", "stop_name": "ALONSO CANO", "routes": ["4__7___"], "mode": "metro"}}, {"type": "Feature", "geometry": {"type": "Point", "coordinates": [-3.70489, 40.4387]}, "properties": {"stop_id": "par_4_144", "stop_name": "CANAL", "routes": ["4__7___"], "mode": "metro"}}, {"type": "Feature", "geometry": {"type": "Point", "coordinates": [-3.71373, 40.43907]}, "properties": {"stop_id": "par_4_145", "stop_name": "ISLAS FILIPINAS", "routes": ["4__7___"], "mode": "metro"}}, {"type": "Feature", "geometry": {"type": "Point", "coordinates": [-3.71229, 40.44633]}, "properties": {"stop_id": "par_4_146", "stop_name": "GUZMAN EL BUENO", "routes": ["4__7___"], "mode": "metro"}}, {"type": "Feature", "geometry": {"type": "Point", "coordinates": [-3.71239, 40.45648]}, "properties": {"stop_id": "par_4_147", "stop_name": "FRANCOS RODRIGUEZ", "routes": ["4__7___"], "mode": "metro"}}, {"type": "Feature", "geometry": {"type": "Point", "coordinates": [-3.71597, 40.46482]}, "properties": {"stop_id": "par_4_148", "stop_name": "VALDEZARZA", "routes": ["4__7___"], "mode": "metro"}}, {"type": "Feature", "geometry": {"type": "Point", "coordinates": [-3.71769, 40.47022]}, "properties": {"stop_id": "par_4_149", "stop_name": "ANTONIO MACHADO", "routes": ["4__7___"], "mode": "metro"}}, {"type": "Feature", "geometry": {"type": "Point", "coordinates": [-3.71582, 40.47592]}, "properties": {"stop_id": "par_4_150", "stop_name": "PEÑAGRANDE", "routes": ["4__7___"], "mode": "metro"}}, {"type": "Feature", "geometry": {"type": "Point", "coordinates": [-3.7184, 40.4801]}, "properties": {"stop_id": "par_4_151", "stop_name": "AVENIDA DE LA ILUSTRACION", "routes": ["4__7___"], "mode": "metro"}}, {"type": "Feature", "geometry": {"type": "Point", "coordinates": [-3.72305, 40.48502]}, "properties": {"stop_id": "par_4_152", "stop_name": "LACOMA", "routes": ["4__7___"], "mode": "metro"}}, {"type": "Feature", "geometry": {"type": "Point", "coordinates": [-3.72604, 40.4909]}, "properties": {"stop_id": "par_4_153", "stop_name": "ARROYOFRESNO", "routes": ["4__7___"], "mode": "metro"}}, {"type": "Feature", "geometry": {"type": "Point", "coordinates": [-3.72589, 40.49511]}, "properties": {"stop_id": "par_4_154", "stop_name": "PITIS", "routes": ["4__7___"], "mode": "metro"}}, {"type": "Feature", "geometry": {"type": "Point", "coordinates": [-3.60015, 40.43339]}, "properties": {"stop_id": "par_4_286", "stop_name": "ESTADIO METROPOLITANO", "routes": ["4__7___"], "mode": "metro"}}, {"type": "Feature", "geometry": {"type": "Point", "coordinates": [-3.56919, 40.4225]}, "properties": {"stop_id": "par_4_287", "stop_name": "BARRIO DEL PUERTO", "routes": ["4__7___"], "mode": "metro"}}, {"type": "Feature", "geometry": {"type": "Point", "coordinates": [-3.56119, 40.42374]}, "properties": {"stop_id": "par_4_288", "stop_name": "COSLADA CENTRAL", "routes": ["4__7___"], "mode": "metro"}}, {"type": "Feature", "geometry": {"type": "Point", "coordinates": [-3.54792, 40.42514]}, "properties": {"stop_id": "par_4_289", "stop_name": "LA RAMBLA", "routes": ["4__7___"], "mode": "metro"}}, {"type": "Feature", "geometry": {"type": "Point", "coordinates": [-3.53541, 40.42441]}, "properties": {"stop_id": "par_4_290", "stop_name": "SAN FERNANDO", "routes": ["4__7___"], "mode": "metro"}}, {"type": "Feature", "geometry": {"type": "Point", "coordinates": [-3.52549, 40.42295]}, "properties": {"stop_id": "par_4_291", "stop_name": "JARAMA", "routes": ["4__7___"], "mode": "metro"}}, {"type": "Feature", "geometry": {"type": "Point", "coordinates": [-3.52718, 40.41777]}, "properties": {"stop_id": "par_4_292", "stop_name": "HENARES", "routes": ["4__7___"], "mode": "metro"}}, {"type": "Feature", "geometry": {"type": "Point", "coordinates": [-3.53453, 40.41761]}, "properties": {"stop_id": "par_4_296", "stop_name": "HOSPITAL DEL HENARES", "routes": ["4__7___"], "mode": "metro"}}, {"type": "Feature", "geometry": {"type": "Point", "coordinates": [-3.69241, 40.44655]}, "properties": {"stop_id": "par_4_155", "stop_name": "NUEVOS MINISTERIOS", "routes": ["4__8___"], "mode": "metro"}}, {"type": "Feature", "geometry": {"type": "Point", "coordinates": [-3.67682, 40.45634]}, "properties": {"stop_id": "par_4_156", "stop_name": "COLOMBIA", "routes": ["4__8___"], "mode": "metro"}}, {"type": "Feature", "geometry": {"type": "Point", "coordinates": [-3.63832, 40.46938]}, "properties": {"stop_id": "par_4_157", "stop_name": "MAR DE CRISTAL", "routes": ["4__8___"], "mode": "metro"}}, {"type": "Feature", "geometry": {"type": "Point", "coordinates": [-3.6162, 40.46389]}, "properties": {"stop_id": "par_4_158", "stop_name": "FERIA DE MADRID", "routes": ["4__8___"], "mode": "metro"}}, {"type": "Feature", "geometry": {"type": "Point", "coordinates": [-3.56954, 40.46864]}, "properties": {"stop_id": "par_4_159", "stop_name": "AEROPUERTO T1-T2-T3", "routes": ["4__8___"], "mode": "metro"}}, {"type": "Feature", "geometry": {"type": "Point", "coordinates": [-3.58253, 40.47577]}, "properties": {"stop_id": "par_4_160", "stop_name": "BARAJAS", "routes": ["4__8___"], "mode": "metro"}}, {"type": "Feature", "geometry": {"type": "Point", "coordinates": [-3.64867, 40.468]}, "properties": {"stop_id": "par_4_258", "stop_name": "PINAR DEL REY", "routes": ["4__8___"], "mode": "metro"}}, {"type": "Feature", "geometry": {"type": "Point", "coordinates": [-3.59325, 40.49177]}, "properties": {"stop_id": "par_4_285", "stop_name": "AEROPUERTO T-4", "routes": ["4__8___"], "mode": "metro"}}, {"type": "Feature", "geometry": {"type": "Point", "coordinates": [-3.70751, 40.48466]}, "properties": {"stop_id": "par_4_161", "stop_name": "HERRERA ORIA", "routes": ["4__9___"], "mode": "metro"}}, {"type": "Feature", "geometry": {"type": "Point", "coordinates": [-3.70316, 40.47689]}, "properties": {"stop_id": "par_4_162", "stop_name": "BARRIO DEL PILAR", "routes": ["4__9___"], "mode": "metro"}}, {"type": "Feature", "geometry": {"type": "Point", "coordinates": [-3.69588, 40.46944]}, "properties": {"stop_id": "par_4_163", "stop_name": "VENTILLA", "routes": ["4__9___"], "mode": "metro"}}, {"type": "Feature", "geometry": {"type": "Point", "coordinates": [-3.68913, 40.4669]}, "properties": {"stop_id": "par_4_164", "stop_name": "PLAZA DE CASTILLA", "routes": ["4__9___"], "mode": "metro"}}, {"type": "Feature", "geometry": {"type": "Point", "coordinates": [-3.67917, 40.46763]}, "properties": {"stop_id": "par_4_165", "stop_name": "DUQUE DE PASTRANA", "routes": ["4__9___"], "mode": "metro"}}, {"type": "Feature", "geometry": {"type": "Point", "coordinates": [-3.67579, 40.463]}, "properties": {"stop_id": "par_4_166", "stop_name": "PIO XII", "routes": ["4__9___"], "mode": "metro"}}, {"type": "Feature", "geometry": {"type": "Point", "coordinates": [-3.67694, 40.45749]}, "properties": {"stop_id": "par_4_167", "stop_name": "COLOMBIA", "routes": ["4__9___"], "mode": "metro"}}, {"type": "Feature", "geometry": {"type": "Point", "coordinates": [-3.67738, 40.45145]}, "properties": {"stop_id": "par_4_168", "stop_name": "CONCHA ESPINA", "routes": ["4__9___"], "mode": "metro"}}, {"type": "Feature", "geometry": {"type": "Point", "coordinates": [-3.67821, 40.44427]}, "properties": {"stop_id": "par_4_169", "stop_name": "CRUZ DEL RAYO", "routes": ["4__9___"], "mode": "metro"}}, {"type": "Feature", "geometry": {"type": "Point", "coordinates": [-3.67647, 40.43804]}, "properties": {"stop_id": "par_4_170", "stop_name": "AVENIDA DE AMERICA", "routes": ["4__9___"], "mode": "metro"}}, {"type": "Feature", "geometry": {"type": "Point", "coordinates": [-3.67936, 40.43013]}, "properties": {"stop_id": "par_4_171", "stop_name": "NUÑEZ DE BALBOA", "routes": ["4__9___"], "mode": "metro"}}, {"type": "Feature", "geometry": {"type": "Point", "coordinates": [-3.68024, 40.42418]}, "properties": {"stop_id": "par_4_172", "stop_name": "PRINCIPE DE VERGARA", "routes": ["4__9___"], "mode": "metro"}}, {"type": "Feature", "geometry": {"type": "Point", "coordinates": [-3.67858, 40.41839]}, "properties": {"stop_id": "par_4_173", "stop_name": "IBIZA", "routes": ["4__9___"], "mode": "metro"}}, {"type": "Feature", "geometry": {"type": "Point", "coordinates": [-3.66951, 40.41503]}, "properties": {"stop_id": "par_4_174", "stop_name": "SAINZ DE BARANDA", "routes": ["4__9___"], "mode": "metro"}}, {"type": "Feature", "geometry": {"type": "Point", "coordinates": [-3.66179, 40.41147]}, "properties": {"stop_id": "par_4_175", "stop_name": "ESTRELLA", "routes": ["4__9___"], "mode": "metro"}}, {"type": "Feature", "geometry": {"type": "Point", "coordinates": [-3.65273, 40.41024]}, "properties": {"stop_id": "par_4_176", "stop_name": "VINATEROS", "routes": ["4__9___"], "mode": "metro"}}, {"type": "Feature", "geometry": {"type": "Point", "coordinates": [-3.64181, 40.40522]}, "properties": {"stop_id": "par_4_177", "stop_name": "ARTILLEROS", "routes": ["4__9___"], "mode": "metro"}}, {"type": "Feature", "geometry": {"type": "Point", "coordinates": [-3.63512, 40.40051]}, "properties": {"stop_id": "par_4_178", "stop_name": "PAVONES", "routes": ["4__9___"], "mode": "metro"}}, {"type": "Feature", "geometry": {"type": "Point", "coordinates": [-3.62156, 40.40005]}, "properties": {"stop_id": "par_4_179", "stop_name": "VALDEBERNARDO", "routes": ["4__9___"], "mode": "metro"}}, {"type": "Feature", "geometry": {"type": "Point", "coordinates": [-3.60886, 40.40422]}, "properties": {"stop_id": "par_4_180", "stop_name": "VICALVARO", "routes": ["4__9___"], "mode": "metro"}}, {"type": "Feature", "geometry": {"type": "Point", "coordinates": [-3.60239, 40.40381]}, "properties": {"stop_id": "par_4_181", "stop_name": "SAN CIPRIANO", "routes": ["4__9___"], "mode": "metro"}}, {"type": "Feature", "geometry": {"type": "Point", "coordinates": [-3.59598, 40.40132]}, "properties": {"stop_id": "par_4_182", "stop_name": "PUERTA DE ARGANDA", "routes": ["4__9___"], "mode": "metro"}}, {"type": "Feature", "geometry": {"type": "Point", "coordinates": [-3.54728, 40.36677]}, "properties": {"stop_id": "par_4_183", "stop_name": "RIVAS URBANIZACIONES", "routes": ["4__9___"], "mode": "metro"}}, {"type": "Feature", "geometry": {"type": "Point", "coordinates": [-3.5206, 40.32837]}, "properties": {"stop_id": "par_4_184", "stop_name": "RIVAS VACIAMADRID", "routes": ["4__9___"], "mode": "metro"}}, {"type": "Feature", "geometry": {"type": "Point", "coordinates": [-3.47745, 40.31902]}, "properties": {"stop_id": "par_4_185", "stop_name": "LA POVEDA", "routes": ["4__9___"], "mode": "metro"}}, {"type": "Feature", "geometry": {"type": "Point", "coordinates": [-3.44752, 40.30367]}, "properties": {"stop_id": "par_4_186", "stop_name": "ARGANDA DEL REY", "routes": ["4__9___"], "mode": "metro"}}, {"type": "Feature", "geometry": {"type": "Point", "coordinates": [-3.52479, 40.34134]}, "properties": {"stop_id": "par_4_300", "stop_name": "RIVAS FUTURA", "routes": ["4__9___"], "mode": "metro"}}, {"type": "Feature", "geometry": {"type": "Point", "coordinates": [-3.71634, 40.4911]}, "properties": {"stop_id": "par_4_326", "stop_name": "MIRASIERRA", "routes": ["4__9___"], "mode": "metro"}}, {"type": "Feature", "geometry": {"type": "Point", "coordinates": [-3.70908, 40.49965]}, "properties": {"stop_id": "par_4_345", "stop_name": "PACO DE LUCIA", "routes": ["4__9___"], "mode": "metro"}}, {"type": "Feature", "geometry": {"type": "Point", "coordinates": [-3.69283, 40.49509]}, "properties": {"stop_id": "par_4_187", "stop_name": "FUENCARRAL", "routes": ["4__10___"], "mode": "metro"}}, {"type": "Feature", "geometry": {"type": "Point", "coordinates": [-3.68585, 40.48041]}, "properties": {"stop_id": "par_4_188", "stop_name": "BEGOÑA", "routes": ["4__10___"], "mode": "metro"}}, {"type": "Feature", "geometry": {"type": "Point", "coordinates": [-3.68259, 40.4721]}, "properties": {"stop_id": "par_4_189", "stop_name": "CHAMARTIN", "routes": ["4__10___"], "mode": "metro"}}, {"type": "Feature", "geometry": {"type": "Point", "coordinates": [-3.68909, 40.4669]}, "properties": {"stop_id": "par_4_190", "stop_name": "PLAZA DE CASTILLA", "routes": ["4__10___"], "mode": "metro"}}, {"type": "Feature", "geometry": {"type": "Point", "coordinates": [-3.68985, 40.45842]}, "properties": {"stop_id": "par_4_191", "stop_name": "CUZCO", "routes": ["4__10___"], "mode": "metro"}}, {"type": "Feature", "geometry": {"type": "Point", "coordinates": [-3.69038, 40.45159]}, "properties": {"stop_id": "par_4_192", "stop_name": "SANTIAGO BERNABEU", "routes": ["4__10___"], "mode": "metro"}}, {"type": "Feature", "geometry": {"type": "Point", "coordinates": [-3.69241, 40.44659]}, "properties": {"stop_id": "par_4_193", "stop_name": "NUEVOS MINISTERIOS", "routes": ["4__10___"], "mode": "metro"}}, {"type": "Feature", "geometry": {"type": "Point", "coordinates": [-3.69127, 40.43753]}, "properties": {"stop_id": "par_4_194", "stop_name": "GREGORIO MARAÑON", "routes": ["4__10___"], "mode": "metro"}}, {"type": "Feature", "geometry": {"type": "Point", "coordinates": [-3.69643, 40.42853]}, "properties": {"stop_id": "par_4_195", "stop_name": "ALONSO MARTINEZ", "routes": ["4__10___"], "mode": "metro"}}, {"type": "Feature", "geometry": {"type": "Point", "coordinates": [-3.70208, 40.426]}, "properties": {"stop_id": "par_4_196", "stop_name": "TRIBUNAL", "routes": ["4__10___"], "mode": "metro"}}, {"type": "Feature", "geometry": {"type": "Point", "coordinates": [-3.7097, 40.42409]}, "properties": {"stop_id": "par_4_197", "stop_name": "PLAZA DE ESPAÑA", "routes": ["4__10___"], "mode": "metro"}}, {"type": "Feature", "geometry": {"type": "Point", "coordinates": [-3.72033, 40.42103]}, "properties": {"stop_id": "par_4_198", "stop_name": "PRINCIPE PIO", "routes": ["4__10___"], "mode": "metro"}}, {"type": "Feature", "geometry": {"type": "Point", "coordinates": [-3.73563, 40.41641]}, "properties": {"stop_id": "par_4_199", "stop_name": "LAGO", "routes": ["4__10___"], "mode": "metro"}}, {"type": "Feature", "geometry": {"type": "Point", "coordinates": [-3.75311, 40.40786]}, "properties": {"stop_id": "par_4_200", "stop_name": "BATAN", "routes": ["4__10___"], "mode": "metro"}}, {"type": "Feature", "geometry": {"type": "Point", "coordinates": [-3.76101, 40.40321]}, "properties": {"stop_id": "par_4_201", "stop_name": "CASA DE CAMPO", "routes": ["4__10___"], "mode": "metro"}}, {"type": "Feature", "geometry": {"type": "Point", "coordinates": [-3.77462, 40.39698]}, "properties": {"stop_id": "par_4_202", "stop_name": "COLONIA JARDIN", "routes": ["4__10___"], "mode": "metro"}}, {"type": "Feature", "geometry": {"type": "Point", "coordinates": [-3.79152, 40.37771]}, "properties": {"stop_id": "par_4_203", "stop_name": "CUATRO VIENTOS", "routes": ["4__10___"], "mode": "metro"}}, {"type": "Feature", "geometry": {"type": "Point", "coordinates": [-3.8072, 40.34985]}, "properties": {"stop_id": "par_4_204", "stop_name": "JOAQUIN VILUMBRALES", "routes": ["4__10___"], "mode": "metro"}}, {"type": "Feature", "geometry": {"type": "Point", "coordinates": [-3.81211, 40.34524]}, "properties": {"stop_id": "par_4_205", "stop_name": "PUERTA DEL SUR", "routes": ["4__10___"], "mode": "metro"}}, {"type": "Feature", "geometry": {"type": "Point", "coordinates": [-3.78392, 40.38364]}, "properties": {"stop_id": "par_4_257", "stop_name": "AVIACION ESPAÑOLA", "routes": ["4__10___"], "mode": "metro"}}, {"type": "Feature", "geometry": {"type": "Point", "coordinates": [-3.6952, 40.5012]}, "properties": {"stop_id": "par_4_274", "stop_name": "TRES OLIVOS", "routes": ["4__10___"], "mode": "metro"}}, {"type": "Feature", "geometry": {"type": "Point", "coordinates": [-3.69575, 40.50525]}, "properties": {"stop_id": "par_4_275", "stop_name": "MONTECARMELO", "routes": ["4__10___"], "mode": "metro"}}, {"type": "Feature", "geometry": {"type": "Point", "coordinates": [-3.66944, 40.50833]}, "properties": {"stop_id": "par_4_276", "stop_name": "LAS TABLAS", "routes": ["4__10___"], "mode": "metro"}}, {"type": "Feature", "geometry": {"type": "Point", "coordinates": [-3.66277, 40.51553]}, "properties": {"stop_id": "par_4_277", "stop_name": "RONDA DE LA COMUNICACION", "routes": ["4__10___"], "mode": "metro"}}, {"type": "Feature", "geometry": {"type": "Point", "coordinates": [-3.65859, 40.5276]}, "properties": {"stop_id": "par_4_278", "stop_name": "LA GRANJA", "routes": ["4__10___"], "mode": "metro"}}, {"type": "Feature", "geometry": {"type": "Point", "coordinates": [-3.63556, 40.53196]}, "properties": {"stop_id": "par_4_279", "stop_name": "LA MORALEJA", "routes": ["4__10___"], "mode": "metro"}}, {"type": "Feature", "geometry": {"type": "Point", "coordinates": [-3.63738, 40.54102]}, "properties": {"stop_id": "par_4_280", "stop_name": "MARQUES DE LA VALDAVIA", "routes": ["4__10___"], "mode": "metro"}}, {"type": "Feature", "geometry": {"type": "Point", "coordinates": [-3.64688, 40.55048]}, "properties": {"stop_id": "par_4_281", "stop_name": "MANUEL DE FALLA", "routes": ["4__10___"], "mode": "metro"}}, {"type": "Feature", "geometry": {"type": "Point", "coordinates": [-3.63513, 40.55442]}, "properties": {"stop_id": "par_4_282", "stop_name": "BAUNATAL", "routes": ["4__10___"], "mode": "metro"}}, {"type": "Feature", "geometry": {"type": "Point", "coordinates": [-3.6234, 40.55037]}, "properties": {"stop_id": "par_4_283", "stop_name": "REYES CATOLICOS", "routes": ["4__10___"], "mode": "metro"}}, {"type": "Feature", "geometry": {"type": "Point", "coordinates": [-3.61145, 40.55977]}, "properties": {"stop_id": "par_4_284", "stop_name": "HOSPITAL INFANTA SOFIA", "routes": ["4__10___"], "mode": "metro"}}, {"type": "Feature", "geometry": {"type": "Point", "coordinates": [-3.71825, 40.3846]}, "properties": {"stop_id": "par_4_206", "stop_name": "PLAZA ELIPTICA", "routes": ["4__11___"], "mode": "metro"}}, {"type": "Feature", "geometry": {"type": "Point", "coordinates": [-3.7279, 40.38083]}, "properties": {"stop_id": "par_4_207", "stop_name": "ABRANTES", "routes": ["4__11___"], "mode": "metro"}}, {"type": "Feature", "geometry": {"type": "Point", "coordinates": [-3.73417, 40.37587]}, "properties": {"stop_id": "par_4_208", "stop_name": "PAN BENDITO", "routes": ["4__11___"], "mode": "metro"}}, {"type": "Feature", "geometry": {"type": "Point", "coordinates": [-3.7391, 40.3736]}, "properties": {"stop_id": "par_4_254", "stop_name": "SAN FRANCISCO", "routes": ["4__11___"], "mode": "metro"}}, {"type": "Feature", "geometry": {"type": "Point", "coordinates": [-3.75191, 40.372]}, "properties": {"stop_id": "par_4_255", "stop_name": "CARABANCHEL ALTO", "routes": ["4__11___"], "mode": "metro"}}, {"type": "Feature", "geometry": {"type": "Point", "coordinates": [-3.7569, 40.36422]}, "properties": {"stop_id": "par_4_256", "stop_name": "LA PESETA", "routes": ["4__11___"], "mode": "metro"}}, {"type": "Feature", "geometry": {"type": "Point", "coordinates": [-3.77783, 40.35795]}, "properties": {"stop_id": "par_4_305", "stop_name": "LA FORTUNA", "routes": ["4__11___"], "mode": "metro"}}, {"type": "Feature", "geometry": {"type": "Point", "coordinates": [-3.81249, 40.34543]}, "properties": {"stop_id": "par_4_209", "stop_name": "PUERTA DEL SUR", "routes": ["4__12___"], "mode": "metro"}}, {"type": "Feature", "geometry": {"type": "Point", "coordinates": [-3.8212, 40.34969]}, "properties": {"stop_id": "par_4_210", "stop_name": "PARQUE LISBOA", "routes": ["4__12___"], "mode": "metro"}}, {"type": "Feature", "geometry": {"type": "Point", "coordinates": [-3.83178, 40.35008]}, "properties": {"stop_id": "par_4_211", "stop_name": "ALCORCON CENTRAL", "routes": ["4__12___"], "mode": "metro"}}, {"type": "Feature", "geometry": {"type": "Point", "coordinates": [-3.84934, 40.34589]}, "properties": {"stop_id": "par_4_212", "stop_name": "PARQUE OESTE", "routes": ["4__12___"], "mode": "metro"}}, {"type": "Feature", "geometry": {"type": "Point", "coordinates": [-3.87218, 40.33512]}, "properties": {"stop_id": "par_4_213", "stop_name": "UNIVERSIDAD REY JUAN CARLOS", "routes": ["4__12___"], "mode": "metro"}}, {"type": "Feature", "geometry": {"type": "Point", "coordinates": [-3.86354, 40.3285]}, "properties": {"stop_id": "par_4_214", "stop_name": "MOSTOLES CENTRAL", "routes": ["4__12___"], "mode": "metro"}}, {"type": "Feature", "geometry": {"type": "Point", "coordinates": [-3.86489, 40.32168]}, "properties": {"stop_id": "par_4_215", "stop_name": "PRADILLO", "routes": ["4__12___"], "mode": "metro"}}, {"type": "Feature", "geometry": {"type": "Point", "coordinates": [-3.87471, 40.31652]}, "properties": {"stop_id": "par_4_216", "stop_name": "HOSPITAL DE MOSTOLES", "routes": ["4__12___"], "mode": "metro"}}, {"type": "Feature", "geometry": {"type": "Point", "coordinates": [-3.86402, 40.30903]}, "properties": {"stop_id": "par_4_217", "stop_name": "MANUELA MALASAÑA", "routes": ["4__12___"], "mode": "metro"}}, {"type": "Feature", "geometry": {"type": "Point", "coordinates": [-3.83768, 40.29681]}, "properties": {"stop_id": "par_4_218", "stop_name": "LORANCA", "routes": ["4__12___"], "mode": "metro"}}, {"type": "Feature", "geometry": {"type": "Point", "coordinates": [-3.81642, 40.28576]}, "properties": {"stop_id": "par_4_219", "stop_name": "HOSPITAL DE FUENLABRADA", "routes": ["4__12___"], "mode": "metro"}}, {"type": "Feature", "geometry": {"type": "Point", "coordinates": [-3.80632, 40.28518]}, "properties": {"stop_id": "par_4_220", "stop_name": "PARQUE EUROPA", "routes": ["4__12___"], "mode": "metro"}}, {"type": "Feature", "geometry": {"type": "Point", "coordinates": [-3.79891, 40.28268]}, "properties": {"stop_id": "par_4_221", "stop_name": "FUENLABRADA CENTRAL", "routes": ["4__12___"], "mode": "metro"}}, {"type": "Feature", "geometry": {"type": "Point", "coordinates": [-3.78697, 40.28684]}, "properties": {"stop_id": "par_4_222", "stop_name": "PARQUE DE LOS ESTADOS", "routes": ["4__12___"], "mode": "metro"}}, {"type": "Feature", "geometry": {"type": "Point", "coordinates": [-3.75682, 40.28874]}, "properties": {"stop_id": "par_4_223", "stop_name": "ARROYO CULEBRO", "routes": ["4__12___"], "mode": "metro"}}, {"type": "Feature", "geometry": {"type": "Point", "coordinates": [-3.74576, 40.29324]}, "properties": {"stop_id": "par_4_224", "stop_name": "CONSERVATORIO", "routes": ["4__12___"], "mode": "metro"}}, {"type": "Feature", "geometry": {"type": "Point", "coordinates": [-3.73664, 40.30081]}, "properties": {"stop_id": "par_4_225", "stop_name": "ALONSO DE MENDOZA", "routes": ["4__12___"], "mode": "metro"}}, {"type": "Feature", "geometry": {"type": "Point", "coordinates": [-3.73403, 40.30993]}, "properties": {"stop_id": "par_4_226", "stop_name": "GETAFE CENTRAL", "routes": ["4__12___"], "mode": "metro"}}, {"type": "Feature", "geometry": {"type": "Point", "coordinates": [-3.72224, 40.3118]}, "properties": {"stop_id": "par_4_227", "stop_name": "JUAN DE LA CIERVA", "routes": ["4__12___"], "mode": "metro"}}, {"type": "Feature", "geometry": {"type": "Point", "coordinates": [-3.70985, 40.31862]}, "properties": {"stop_id": "par_4_228", "stop_name": "EL CASAR", "routes": ["4__12___", "4__3___"], "mode": "metro"}}, {"type": "Feature", "geometry": {"type": "Point", "coordinates": [-3.7182, 40.32423]}, "properties": {"stop_id": "par_4_229", "stop_name": "LOS ESPARTALES", "routes": ["4__12___"], "mode": "metro"}}, {"type": "Feature", "geometry": {"type": "Point", "coordinates": [-3.72963, 40.32907]}, "properties": {"stop_id": "par_4_230", "stop_name": "EL BERCIAL", "routes": ["4__12___"], "mode": "metro"}}, {"type": "Feature", "geometry": {"type": "Point", "coordinates": [-3.74018, 40.33664]}, "properties": {"stop_id": "par_4_231", "stop_name": "EL CARRASCAL", "routes": ["4__12___"], "mode": "metro"}}, {"type": "Feature", "geometry": {"type": "Point", "coordinates": [-3.75266, 40.33475]}, "properties": {"stop_id": "par_4_232", "stop_name": "JULIAN BESTEIRO", "routes": ["4__12___"], "mode": "metro"}}, {"type": "Feature", "geometry": {"type": "Point", "coordinates": [-3.75942, 40.3266]}, "properties": {"stop_id": "par_4_233", "stop_name": "CASA DEL RELOJ", "routes": ["4__12___"], "mode": "metro"}}, {"type": "Feature", "geometry": {"type": "Point", "coordinates": [-3.76797, 40.32177]}, "properties": {"stop_id": "par_4_234", "stop_name": "HOSPITAL SEVERO OCHOA", "routes": ["4__12___"], "mode": "metro"}}, {"type": "Feature", "geometry": {"type": "Point", "coordinates": [-3.77154, 40.32899]}, "properties": {"stop_id": "par_4_235", "stop_name": "LEGANES CENTRAL", "routes": ["4__12___"], "mode": "metro"}}, {"type": "Feature", "geometry": {"type": "Point", "coordinates": [-3.77587, 40.33616]}, "properties": {"stop_id": "par_4_236", "stop_name": "SAN NICASIO", "routes": ["4__12___"], "mode": "metro"}}, {"type": "Feature", "geometry": {"type": "Point", "coordinates": [-3.70928, 40.41809]}, "properties": {"stop_id": "par_4_237", "stop_name": "OPERA", "routes": ["4__R___"], "mode": "metro"}}, {"type": "Feature", "geometry": {"type": "Point", "coordinates": [-3.72033, 40.42099]}, "properties": {"stop_id": "par_4_238", "stop_name": "PRINCIPE PIO", "routes": ["4__R___"], "mode": "metro"}}, {"type": "Feature", "geometry": {"type": "Point", "coordinates": [-3.6893, 40.40659]}, "properties": {"stop_id": "par_5_11", "stop_name": "ATOCHA", "routes": ["5__C10___", "5__C1___", "5__C2___", "5__C3___", "5__C4_A__", "5__C4_B__", "5__C5___", "5__C7___", "5__C8___", "5__C9___"], "mode": "cercanias"}}, {"type": "Feature", "geometry": {"type": "Point", "coordinates": [-3.66282, 40.48475]}, "properties": {"stop_id": "par_5_133", "stop_name": "FUENTE DE LA MORA", "routes": ["5__C10___", "5__C1___", "5__C2___", "5__C3___", "5__C4_A__", "5__C4_B__", "5__C5___", "5__C7___", "5__C8___", "5__C9___"], "mode": "cercanias"}}, {"type": "Feature", "geometry": {"type": "Point", "coordinates": [-3.59333, 40.49177]}, "properties": {"stop_id": "par_5_142", "stop_name": "AEROPUERTO T4", "routes": ["5__C10___", "5__C1___", "5__C2___", "5__C3___", "5__C4_A__", "5__C4_B__", "5__C5___", "5__C7___", "5__C8___", "5__C9___"], "mode": "cercanias"}}, {"type": "Feature", "geometry": {"type": "Point", "coordinates": [-3.61642, 40.4823]}, "properties": {"stop_id": "par_5_144", "stop_name": "VALDEBEBAS", "routes": ["5__C10___", "5__C1___", "5__C2___", "5__C3___", "5__C4_A__", "5__C4_B__", "5__C5___", "5__C7___", "5__C8___", "5__C9___"], "mode": "cercanias"}}, {"type": "Feature", "geometry": {"type": "Point", "coordinates": [-3.68247, 40.4721]}, "properties": {"stop_id": "par_5_18", "stop_name": "CHAMARTÍN", "routes": ["5__C10___", "5__C1___", "5__C2___", "5__C3___", "5__C4_A__", "5__C4_B__", "5__C5___", "5__C7___", "5__C8___", "5__C9___"], "mode": "cercanias"}}, {"type": "Feature", "geometry": {"type": "Point", "coordinates": [-3.69277, 40.40037]}, "properties": {"stop_id": "par_5_25", "stop_name": "DELICIAS", "routes": ["5__C10___", "5__C1___", "5__C2___", "5__C3___", "5__C4_A__", "5__C4_B__", "5__C5___", "5__C7___", "5__C8___", "5__C9___"], "mode": "cercanias"}}, {"type": "Feature", "geometry": {"type": "Point", "coordinates": [-3.67808, 40.39538]}, "properties": {"stop_id": "par_5_46", "stop_name": "MÉNDEZ ÁLVARO", "routes": ["5__C10___", "5__C1___", "5__C2___", "5__C3___", "5__C4_A__", "5__C4_B__", "5__C5___", "5__C7___", "5__C8___", "5__C9___"], "mode": "cercanias"}}, {"type": "Feature", "geometry": {"type": "Point", "coordinates": [-3.69234, 40.44662]}, "properties": {"stop_id": "par_5_51", "stop_name": "NUEVOS MINISTERIOS", "routes": ["5__C10___", "5__C1___", "5__C2___", "5__C3___", "5__C4_A__", "5__C4_B__", "5__C5___", "5__C7___", "5__C8___", "5__C9___"], "mode": "cercanias"}}, {"type": "Feature", "geometry": {"type": "Point", "coordinates": [-3.71134, 40.4026]}, "properties": {"stop_id": "par_5_57", "stop_name": "PIRÁMIDES", "routes": ["5__C10___", "5__C1___", "5__C2___", "5__C3___", "5__C4_A__", "5__C4_B__", "5__C5___", "5__C7___", "5__C8___", "5__C9___"], "mode": "cercanias"}}, {"type": "Feature", "geometry": {"type": "Point", "coordinates": [-3.72026, 40.42107]}, "properties": {"stop_id": "par_5_61", "stop_name": "PRÍNCIPE PÍO", "routes": ["5__C10___", "5__C1___", "5__C2___", "5__C3___", "5__C4_A__", "5__C4_B__", "5__C5___", "5__C7___", "5__C8___", "5__C9___"], "mode": "cercanias"}}, {"type": "Feature", "geometry": {"type": "Point", "coordinates": [-3.69086, 40.42341]}, "properties": {"stop_id": "par_5_65", "stop_name": "RECOLETOS", "routes": ["5__C10___", "5__C1___", "5__C2___", "5__C3___", "5__C4_A__", "5__C4_B__", "5__C5___", "5__C7___", "5__C8___", "5__C9___"], "mode": "cercanias"}}, {"type": "Feature", "geometry": {"type": "Point", "coordinates": [-3.67819, 40.39538]}, "properties": {"stop_id": "est_90_13", "stop_name": "Méndez Álvaro Estación Sur", "routes": ["5__C10___", "5__C1___", "5__C2___", "5__C3___", "5__C4_A__", "5__C4_B__", "5__C5___", "5__C7___", "5__C8___", "5__C9___"], "mode": "cercanias"}}, {"type": "Feature", "geometry": {"type": "Point", "coordinates": [-3.72037, 40.42107]}, "properties": {"stop_id": "est_90_18", "stop_name": "Intercambiador de Príncipe Pío", "routes": ["5__C10___", "5__C1___", "5__C2___", "5__C3___", "5__C4_A__", "5__C4_B__", "5__C5___", "5__C7___", "5__C8___", "5__C9___"], "mode": "cercanias"}}, {"type": "Feature", "geometry": {"type": "Point", "coordinates": [-3.68269, 40.4721]}, "properties": {"stop_id": "est_90_25", "stop_name": "Chamartín", "routes": ["5__C10___", "5__C1___", "5__C2___", "5__C3___", "5__C4_A__", "5__C4_B__", "5__C5___", "5__C7___", "5__C8___", "5__C9___"], "mode": "cercanias"}}, {"type": "Feature", "geometry": {"type": "Point", "coordinates": [-3.59356, 40.49176]}, "properties": {"stop_id": "est_90_33", "stop_name": "Aeropuerto T4", "routes": ["5__C10___", "5__C1___", "5__C2___", "5__C3___", "5__C4_A__", "5__C4_B__", "5__C5___", "5__C7___", "5__C8___", "5__C9___"], "mode": "cercanias"}}, {"type": "Feature", "geometry": {"type": "Point", "coordinates": [-3.68944, 40.40659]}, "properties": {"stop_id": "est_90_54", "stop_name": "Atocha-Renfe", "routes": ["5__C10___", "5__C1___", "5__C2___", "5__C3___", "5__C4_A__", "5__C4_B__", "5__C5___", "5__C7___", "5__C8___", "5__C9___"], "mode": "cercanias"}}, {"type": "Feature", "geometry": {"type": "Point", "coordinates": [-3.69246, 40.44662]}, "properties": {"stop_id": "est_90_71", "stop_name": "Nuevos Ministerios", "routes": ["5__C10___", "5__C1___", "5__C2___", "5__C3___", "5__C4_A__", "5__C4_B__", "5__C5___", "5__C7___", "5__C8___", "5__C9___"], "mode": "cercanias"}}, {"type": "Feature", "geometry": {"type": "Point", "coordinates": [-3.668, 40.38167]}, "properties": {"stop_id": "par_5_10", "stop_name": "ASAMBLEA DE MADRID-ENTREVÍAS", "routes": ["5__C10___", "5__C1___", "5__C2___", "5__C3___", "5__C4_A__", "5__C4_B__", "5__C5___", "5__C7___", "5__C8___", "5__C9___"], "mode": "cercanias"}}, {"type": "Feature", "geometry": {"type": "Point", "coordinates": [-3.39317, 40.48043]}, "properties": {"stop_id": "par_5_106", "stop_name": "GARENA LA", "routes": ["5__C10___", "5__C1___", "5__C2___", "5__C3___", "5__C4_A__", "5__C4_B__", "5__C5___", "5__C7___", "5__C8___", "5__C9___"], "mode": "cercanias"}}, {"type": "Feature", "geometry": {"type": "Point", "coordinates": [-3.26546, 40.56103]}, "properties": {"stop_id": "par_5_12", "stop_name": "AZUQUECA", "routes": ["5__C10___", "5__C1___", "5__C2___", "5__C3___", "5__C4_A__", "5__C4_B__", "5__C5___", "5__C7___", "5__C8___", "5__C9___"], "mode": "cercanias"}}, {"type": "Feature", "geometry": {"type": "Point", "coordinates": [-3.44134, 40.46353]}, "properties": {"stop_id": "par_5_143", "stop_name": "SOTO DEL HENARES", "routes": ["5__C10___", "5__C1___", "5__C2___", "5__C3___", "5__C4_A__", "5__C4_B__", "5__C5___", "5__C7___", "5__C8___", "5__C9___"], "mode": "cercanias"}}, {"type": "Feature", "geometry": {"type": "Point", "coordinates": [-3.36634, 40.48903]}, "properties": {"stop_id": "par_5_2", "stop_name": "ALCALÁ DE HENARES", "routes": ["5__C10___", "5__C1___", "5__C2___", "5__C3___", "5__C4_A__", "5__C4_B__", "5__C5___", "5__C7___", "5__C8___", "5__C9___"], "mode": "cercanias"}}, {"type": "Feature", "geometry": {"type": "Point", "coordinates": [-3.56114, 40.42374]}, "properties": {"stop_id": "par_5_22", "stop_name": "COSLADA", "routes": ["5__C10___", "5__C1___", "5__C2___", "5__C3___", "5__C4_A__", "5__C4_B__", "5__C5___", "5__C7___", "5__C8___", "5__C9___"], "mode": "cercanias"}}, {"type": "Feature", "geometry": {"type": "Point", "coordinates": [-3.33541, 40.50534]}, "properties": {"stop_id": "par_5_3", "stop_name": "ALCALÁ DE HENARES UNIVERSIDAD", "routes": ["5__C10___", "5__C1___", "5__C2___", "5__C3___", "5__C4_A__", "5__C4_B__", "5__C5___", "5__C7___", "5__C8___", "5__C9___"], "mode": "cercanias"}}, {"type": "Feature", "geometry": {"type": "Point", "coordinates": [-3.18239, 40.64408]}, "properties": {"stop_id": "par_5_38", "stop_name": "GUADALAJARA", "routes": ["5__C10___", "5__C1___", "5__C2___", "5__C3___", "5__C4_A__", "5__C4_B__", "5__C5___", "5__C7___", "5__C8___", "5__C9___"], "mode": "cercanias"}}, {"type": "Feature", "geometry": {"type": "Point", "coordinates": [-3.29866, 40.53462]}, "properties": {"stop_id": "par_5_45", "stop_name": "MECO", "routes": ["5__C10___", "5__C1___", "5__C2___", "5__C3___", "5__C4_A__", "5__C4_B__", "5__C5___", "5__C7___", "5__C8___", "5__C9___"], "mode": "cercanias"}}, {"type": "Feature", "geometry": {"type": "Point", "coordinates": [-3.65623, 40.3759]}, "properties": {"stop_id": "par_5_59", "stop_name": "POZO EL", "routes": ["5__C10___", "5__C1___", "5__C2___", "5__C3___", "5__C4_A__", "5__C4_B__", "5__C5___", "5__C7___", "5__C8___", "5__C9___"], "mode": "cercanias"}}, {"type": "Feature", "geometry": {"type": "Point", "coordinates": [-3.53385, 40.44266]}, "properties": {"stop_id": "par_5_71", "stop_name": "SAN FERNANDO", "routes": ["5__C10___", "5__C1___", "5__C2___", "5__C3___", "5__C4_A__", "5__C4_B__", "5__C5___", "5__C7___", "5__C8___", "5__C9___"], "mode": "cercanias"}}, {"type": "Feature", "geometry": {"type": "Point", "coordinates": [-3.60906, 40.38699]}, "properties": {"stop_id": "par_5_75", "stop_name": "SANTA EUGENIA", "routes": ["5__C10___", "5__C1___", "5__C2___", "5__C3___", "5__C4_A__", "5__C4_B__", "5__C5___", "5__C7___", "5__C8___", "5__C9___"], "mode": "cercanias"}}, {"type": "Feature", "geometry": {"type": "Point", "coordinates": [-3.47982, 40.4546]}, "properties": {"stop_id": "par_5_81", "stop_name": "TORREJÓN DE ARDOZ", "routes": ["5__C10___", "5__C1___", "5__C2___", "5__C3___", "5__C4_A__", "5__C4_B__", "5__C5___", "5__C7___", "5__C8___", "5__C9___"], "mode": "cercanias"}}, {"type": "Feature", "geometry": {"type": "Point", "coordinates": [-3.62455, 40.38221]}, "properties": {"stop_id": "par_5_87", "stop_name": "VALLECAS", "routes": ["5__C10___", "5__C1___", "5__C2___", "5__C3___", "5__C4_A__", "5__C4_B__", "5__C5___", "5__C7___", "5__C8___", "5__C9___"], "mode": "cercanias"}}, {"type": "Feature", "geometry": {"type": "Point", "coordinates": [-3.59593, 40.40132]}, "properties": {"stop_id": "par_5_90", "stop_name": "VICÁLVARO", "routes": ["5__C10___", "5__C1___", "5__C2___", "5__C3___", "5__C4_A__", "5__C4_B__", "5__C5___", "5__C7___", "5__C8___", "5__C9___"], "mode": "cercanias"}}, {"type": "Feature", "geometry": {"type": "Point", "coordinates": [-3.70984, 40.31847]}, "properties": {"stop_id": "par_5_103", "stop_name": "CASAR EL", "routes": ["5__C10___", "5__C1___", "5__C2___", "5__C3___", "5__C4_A__", "5__C4_B__", "5__C5___", "5__C7___", "5__C8___", "5__C9___"], "mode": "cercanias"}}, {"type": "Feature", "geometry": {"type": "Point", "coordinates": [-3.70309, 40.41685]}, "properties": {"stop_id": "par_5_122", "stop_name": "SOL", "routes": ["5__C10___", "5__C1___", "5__C2___", "5__C3___", "5__C4_A__", "5__C4_B__", "5__C5___", "5__C7___", "5__C8___", "5__C9___"], "mode": "cercanias"}}, {"type": "Feature", "geometry": {"type": "Point", "coordinates": [-3.61003, 40.15906]}, "properties": {"stop_id": "par_5_19", "stop_name": "CIEMPOZUELOS", "routes": ["5__C10___", "5__C1___", "5__C2___", "5__C3___", "5__C4_A__", "5__C4_B__", "5__C5___", "5__C7___", "5__C8___", "5__C9___"], "mode": "cercanias"}}, {"type": "Feature", "geometry": {"type": "Point", "coordinates": [-3.70769, 40.30548]}, "properties": {"stop_id": "par_5_35", "stop_name": "GETAFE INDUSTRIAL", "routes": ["5__C10___", "5__C1___", "5__C2___", "5__C3___", "5__C4_A__", "5__C4_B__", "5__C5___", "5__C7___", "5__C8___", "5__C9___"], "mode": "cercanias"}}, {"type": "Feature", "geometry": {"type": "Point", "coordinates": [-3.70374, 40.24279]}, "properties": {"stop_id": "par_5_56", "stop_name": "PINTO", "routes": ["5__C10___", "5__C1___", "5__C2___", "5__C3___", "5__C4_A__", "5__C4_B__", "5__C5___", "5__C7___", "5__C8___", "5__C9___"], "mode": "cercanias"}}, {"type": "Feature", "geometry": {"type": "Point", "coordinates": [-3.68385, 40.34236]}, "properties": {"stop_id": "par_5_69", "stop_name": "SAN CRISTÓBAL DE LOS ANGELES", "routes": ["5__C10___", "5__C1___", "5__C2___", "5__C3___", "5__C4_A__", "5__C4_B__", "5__C5___", "5__C7___", "5__C8___", "5__C9___"], "mode": "cercanias"}}, {"type": "Feature", "geometry": {"type": "Point", "coordinates": [-3.69872, 40.33191]}, "properties": {"stop_id": "par_5_70", "stop_name": "SAN CRISTÓBAL INDUSTRIAL", "routes": ["5__C10___", "5__C1___", "5__C2___", "5__C3___", "5__C4_A__", "5__C4_B__", "5__C5___", "5__C7___", "5__C8___", "5__C9___"], "mode": "cercanias"}}, {"type": "Feature", "geometry": {"type": "Point", "coordinates": [-3.61831, 40.03483]}, "properties": {"stop_id": "par_5_8", "stop_name": "ARANJUEZ", "routes": ["5__C10___", "5__C1___", "5__C2___", "5__C3___", "5__C4_A__", "5__C4_B__", "5__C5___", "5__C7___", "5__C8___", "5__C9___"], "mode": "cercanias"}}, {"type": "Feature", "geometry": {"type": "Point", "coordinates": [-3.66482, 40.19604]}, "properties": {"stop_id": "par_5_86", "stop_name": "VALDEMORO", "routes": ["5__C10___", "5__C1___", "5__C2___", "5__C3___", "5__C4_A__", "5__C4_B__", "5__C5___", "5__C7___", "5__C8___", "5__C9___"], "mode": "cercanias"}}, {"type": "Feature", "geometry": {"type": "Point", "coordinates": [-3.68398, 40.35264]}, "properties": {"stop_id": "par_5_93", "stop_name": "VILLAVERDE BAJO", "routes": ["5__C10___", "5__C1___", "5__C2___", "5__C3___", "5__C4_A__", "5__C4_B__", "5__C5___", "5__C7___", "5__C8___", "5__C9___"], "mode": "cercanias"}}, {"type": "Feature", "geometry": {"type": "Point", "coordinates": [-3.70331, 40.41688]}, "properties": {"stop_id": "est_90_58", "stop_name": "Puerta del Sol", "routes": ["5__C10___", "5__C1___", "5__C2___", "5__C3___", "5__C4_A__", "5__C4_B__", "5__C5___", "5__C7___", "5__C8___", "5__C9___"], "mode": "cercanias"}}, {"type": "Feature", "geometry": {"type": "Point", "coordinates": [-3.70034, 40.54378]}, "properties": {"stop_id": "par_5_15", "stop_name": "CANTOBLANCO UNIVERSIDAD", "routes": ["5__C10___", "5__C1___", "5__C2___", "5__C3___", "5__C4_A__", "5__C4_B__", "5__C5___", "5__C7___", "5__C8___", "5__C9___"], "mode": "cercanias"}}, {"type": "Feature", "geometry": {"type": "Point", "coordinates": [-3.68234, 40.50156]}, "properties": {"stop_id": "par_5_31", "stop_name": "FUENCARRAL", "routes": ["5__C10___", "5__C1___", "5__C2___", "5__C3___", "5__C4_A__", "5__C4_B__", "5__C5___", "5__C7___", "5__C8___", "5__C9___"], "mode": "cercanias"}}, {"type": "Feature", "geometry": {"type": "Point", "coordinates": [-3.73394, 40.3101]}, "properties": {"stop_id": "par_5_34", "stop_name": "GETAFE CENTRO", "routes": ["5__C10___", "5__C1___", "5__C2___", "5__C3___", "5__C4_A__", "5__C4_B__", "5__C5___", "5__C7___", "5__C8___", "5__C9___"], "mode": "cercanias"}}, {"type": "Feature", "geometry": {"type": "Point", "coordinates": [-3.73734, 40.28824]}, "properties": {"stop_id": "par_5_36", "stop_name": "GETAFE SECTOR 3", "routes": ["5__C10___", "5__C1___", "5__C2___", "5__C3___", "5__C4_A__", "5__C4_B__", "5__C5___", "5__C7___", "5__C8___", "5__C9___"], "mode": "cercanias"}}, {"type": "Feature", "geometry": {"type": "Point", "coordinates": [-3.63519, 40.54657]}, "properties": {"stop_id": "par_5_4", "stop_name": "ALCOBENDAS-S.S. DE LOS REYES", "routes": ["5__C10___", "5__C1___", "5__C2___", "5__C3___", "5__C4_A__", "5__C4_B__", "5__C5___", "5__C7___", "5__C8___", "5__C9___"], "mode": "cercanias"}}, {"type": "Feature", "geometry": {"type": "Point", "coordinates": [-3.72737, 40.32304]}, "properties": {"stop_id": "par_5_43", "stop_name": "MARGARITAS-UNIVERSIDAD LAS", "routes": ["5__C10___", "5__C1___", "5__C2___", "5__C3___", "5__C4_A__", "5__C4_B__", "5__C5___", "5__C7___", "5__C8___", "5__C9___"], "mode": "cercanias"}}, {"type": "Feature", "geometry": {"type": "Point", "coordinates": [-3.76936, 40.24077]}, "properties": {"stop_id": "par_5_53", "stop_name": "PARLA", "routes": ["5__C10___", "5__C1___", "5__C2___", "5__C3___", "5__C4_A__", "5__C4_B__", "5__C5___", "5__C7___", "5__C8___", "5__C9___"], "mode": "cercanias"}}, {"type": "Feature", "geometry": {"type": "Point", "coordinates": [-3.68334, 40.55406]}, "properties": {"stop_id": "par_5_84", "stop_name": "UNIVERSIDAD P. COMILLAS", "routes": ["5__C10___", "5__C1___", "5__C2___", "5__C3___", "5__C4_A__", "5__C4_B__", "5__C5___", "5__C7___", "5__C8___", "5__C9___"], "mode": "cercanias"}}, {"type": "Feature", "geometry": {"type": "Point", "coordinates": [-3.65434, 40.54745]}, "properties": {"stop_id": "par_5_85", "stop_name": "VALDELASFUENTES", "routes": ["5__C10___", "5__C1___", "5__C2___", "5__C3___", "5__C4_A__", "5__C4_B__", "5__C5___", "5__C7___", "5__C8___", "5__C9___"], "mode": "cercanias"}}, {"type": "Feature", "geometry": {"type": "Point", "coordinates": [-3.71193, 40.34123]}, "properties": {"stop_id": "par_5_92", "stop_name": "VILLAVERDE ALTO", "routes": ["5__C10___", "5__C1___", "5__C2___", "5__C3___", "5__C4_A__", "5__C4_B__", "5__C5___", "5__C7___", "5__C8___", "5__C9___"], "mode": "cercanias"}}, {"type": "Feature", "geometry": {"type": "Point", "coordinates": [-3.77573, 40.64497]}, "properties": {"stop_id": "par_5_21", "stop_name": "COLMENAR VIEJO", "routes": ["5__C10___", "5__C1___", "5__C2___", "5__C3___", "5__C4_A__", "5__C4_B__", "5__C5___", "5__C7___", "5__C8___", "5__C9___"], "mode": "cercanias"}}, {"type": "Feature", "geometry": {"type": "Point", "coordinates": [-3.71407, 40.55857]}, "properties": {"stop_id": "par_5_37", "stop_name": "GOLOSO EL", "routes": ["5__C10___", "5__C1___", "5__C2___", "5__C3___", "5__C4_A__", "5__C4_B__", "5__C5___", "5__C7___", "5__C8___", "5__C9___"], "mode": "cercanias"}}, {"type": "Feature", "geometry": {"type": "Point", "coordinates": [-3.71564, 40.59844]}, "properties": {"stop_id": "par_5_83", "stop_name": "TRES CANTOS", "routes": ["5__C10___", "5__C1___", "5__C2___", "5__C3___", "5__C4_A__", "5__C4_B__", "5__C5___", "5__C7___", "5__C8___", "5__C9___"], "mode": "cercanias"}}, {"type": "Feature", "geometry": {"type": "Point", "coordinates": [-3.78027, 40.38119]}, "properties": {"stop_id": "par_5_1", "stop_name": "ÁGUILAS LAS", "routes": ["5__C10___", "5__C1___", "5__C2___", "5__C3___", "5__C4_A__", "5__C4_B__", "5__C5___", "5__C7___", "5__C8___", "5__C9___"], "mode": "cercanias"}}, {"type": "Feature", "geometry": {"type": "Point", "coordinates": [-3.82847, 40.25565]}, "properties": {"stop_id": "par_5_104", "stop_name": "HUMANES", "routes": ["5__C10___", "5__C1___", "5__C2___", "5__C3___", "5__C4_A__", "5__C4_B__", "5__C5___", "5__C7___", "5__C8___", "5__C9___"], "mode": "cercanias"}}, {"type": "Feature", "geometry": {"type": "Point", "coordinates": [-3.78334, 40.3125]}, "properties": {"stop_id": "par_5_105", "stop_name": "PARQUE POLVORANCA", "routes": ["5__C10___", "5__C1___", "5__C2___", "5__C3___", "5__C4_A__", "5__C4_B__", "5__C5___", "5__C7___", "5__C8___", "5__C9___"], "mode": "cercanias"}}, {"type": "Feature", "geometry": {"type": "Point", "coordinates": [-3.79143, 40.37771]}, "properties": {"stop_id": "par_5_24", "stop_name": "CUATRO VIENTOS", "routes": ["5__C10___", "5__C1___", "5__C2___", "5__C3___", "5__C4_A__", "5__C4_B__", "5__C5___", "5__C7___", "5__C8___", "5__C9___"], "mode": "cercanias"}}, {"type": "Feature", "geometry": {"type": "Point", "coordinates": [-3.69861, 40.37896]}, "properties": {"stop_id": "par_5_26", "stop_name": "DOCE DE OCTUBRE", "routes": ["5__C10___", "5__C1___", "5__C2___", "5__C3___", "5__C4_A__", "5__C4_B__", "5__C5___", "5__C7___", "5__C8___", "5__C9___"], "mode": "cercanias"}}, {"type": "Feature", "geometry": {"type": "Point", "coordinates": [-3.70262, 40.40513]}, "properties": {"stop_id": "par_5_28", "stop_name": "EMBAJADORES", "routes": ["5__C10___", "5__C1___", "5__C2___", "5__C3___", "5__C4_A__", "5__C4_B__", "5__C5___", "5__C7___", "5__C8___", "5__C9___"], "mode": "cercanias"}}, {"type": "Feature", "geometry": {"type": "Point", "coordinates": [-3.76856, 40.38365]}, "properties": {"stop_id": "par_5_30", "stop_name": "FANJUL", "routes": ["5__C10___", "5__C1___", "5__C2___", "5__C3___", "5__C4_A__", "5__C4_B__", "5__C5___", "5__C7___", "5__C8___", "5__C9___"], "mode": "cercanias"}}, {"type": "Feature", "geometry": {"type": "Point", "coordinates": [-3.79885, 40.28268]}, "properties": {"stop_id": "par_5_32", "stop_name": "FUENLABRADA", "routes": ["5__C10___", "5__C1___", "5__C2___", "5__C3___", "5__C4_A__", "5__C4_B__", "5__C5___", "5__C7___", "5__C8___", "5__C9___"], "mode": "cercanias"}}, {"type": "Feature", "geometry": {"type": "Point", "coordinates": [-3.74422, 40.39918]}, "properties": {"stop_id": "par_5_40", "stop_name": "LAGUNA", "routes": ["5__C10___", "5__C1___", "5__C2___", "5__C3___", "5__C4_A__", "5__C4_B__", "5__C5___", "5__C7___", "5__C8___", "5__C9___"], "mode": "cercanias"}}, {"type": "Feature", "geometry": {"type": "Point", "coordinates": [-3.77148, 40.32899]}, "properties": {"stop_id": "par_5_41", "stop_name": "LEGANES", "routes": ["5__C10___", "5__C1___", "5__C2___", "5__C3___", "5__C4_A__", "5__C4_B__", "5__C5___", "5__C7___", "5__C8___", "5__C9___"], "mode": "cercanias"}}, {"type": "Feature", "geometry": {"type": "Point", "coordinates": [-3.86349, 40.3285]}, "properties": {"stop_id": "par_5_48", "stop_name": "MÓSTOLES", "routes": ["5__C10___", "5__C1___", "5__C2___", "5__C3___", "5__C4_A__", "5__C4_B__", "5__C5___", "5__C7___", "5__C8___", "5__C9___"], "mode": "cercanias"}}, {"type": "Feature", "geometry": {"type": "Point", "coordinates": [-3.88234, 40.33089]}, "properties": {"stop_id": "par_5_49", "stop_name": "MÓSTOLES EL SOTO", "routes": ["5__C10___", "5__C1___", "5__C2___", "5__C3___", "5__C4_A__", "5__C4_B__", "5__C5___", "5__C7___", "5__C8___", "5__C9___"], "mode": "cercanias"}}, {"type": "Feature", "geometry": {"type": "Point", "coordinates": [-3.83173, 40.35008]}, "properties": {"stop_id": "par_5_5", "stop_name": "ALCORCÓN", "routes": ["5__C10___", "5__C1___", "5__C2___", "5__C3___", "5__C4_A__", "5__C4_B__", "5__C5___", "5__C7___", "5__C8___", "5__C9___"], "mode": "cercanias"}}, {"type": "Feature", "geometry": {"type": "Point", "coordinates": [-3.70442, 40.36691]}, "properties": {"stop_id": "par_5_52", "stop_name": "ORCASITAS", "routes": ["5__C10___", "5__C1___", "5__C2___", "5__C3___", "5__C4_A__", "5__C4_B__", "5__C5___", "5__C7___", "5__C8___", "5__C9___"], "mode": "cercanias"}}, {"type": "Feature", "geometry": {"type": "Point", "coordinates": [-3.70516, 40.35028]}, "properties": {"stop_id": "par_5_62", "stop_name": "PUENTE ALCOCER", "routes": ["5__C10___", "5__C1___", "5__C2___", "5__C3___", "5__C4_A__", "5__C4_B__", "5__C5___", "5__C7___", "5__C8___", "5__C9___"], "mode": "cercanias"}}, {"type": "Feature", "geometry": {"type": "Point", "coordinates": [-3.84242, 40.34189]}, "properties": {"stop_id": "par_5_66", "stop_name": "RETAMAS LAS", "routes": ["5__C10___", "5__C1___", "5__C2___", "5__C3___", "5__C4_A__", "5__C4_B__", "5__C5___", "5__C7___", "5__C8___", "5__C9___"], "mode": "cercanias"}}, {"type": "Feature", "geometry": {"type": "Point", "coordinates": [-3.76074, 40.38563]}, "properties": {"stop_id": "par_5_7", "stop_name": "ALUCHE", "routes": ["5__C10___", "5__C1___", "5__C2___", "5__C3___", "5__C4_A__", "5__C4_B__", "5__C5___", "5__C7___", "5__C8___", "5__C9___"], "mode": "cercanias"}}, {"type": "Feature", "geometry": {"type": "Point", "coordinates": [-3.81588, 40.35653]}, "properties": {"stop_id": "par_5_72", "stop_name": "SAN JOSÉ DE VALDERAS", "routes": ["5__C10___", "5__C1___", "5__C2___", "5__C3___", "5__C4_A__", "5__C4_B__", "5__C5___", "5__C7___", "5__C8___", "5__C9___"], "mode": "cercanias"}}, {"type": "Feature", "geometry": {"type": "Point", "coordinates": [-3.79248, 40.29672]}, "properties": {"stop_id": "par_5_77", "stop_name": "SERNA LA", "routes": ["5__C10___", "5__C1___", "5__C2___", "5__C3___", "5__C4_A__", "5__C4_B__", "5__C5___", "5__C7___", "5__C8___", "5__C9___"], "mode": "cercanias"}}, {"type": "Feature", "geometry": {"type": "Point", "coordinates": [-3.7483, 40.34085]}, "properties": {"stop_id": "par_5_95", "stop_name": "ZARZAQUEMADA", "routes": ["5__C10___", "5__C1___", "5__C2___", "5__C3___", "5__C4_A__", "5__C4_B__", "5__C5___", "5__C7___", "5__C8___", "5__C9___"], "mode": "cercanias"}}, {"type": "Feature", "geometry": {"type": "Point", "coordinates": [-3.76085, 40.38563]}, "properties": {"stop_id": "est_90_1", "stop_name": "Aluche", "routes": ["5__C10___", "5__C1___", "5__C2___", "5__C3___", "5__C4_A__", "5__C4_B__", "5__C5___", "5__C7___", "5__C8___", "5__C9___"], "mode": "cercanias"}}, {"type": "Feature", "geometry": {"type": "Point", "coordinates": [-3.80774, 40.46537]}, "properties": {"stop_id": "par_5_13", "stop_name": "BARRIAL-C.COM.POZUELO EL", "routes": ["5__C10___", "5__C1___", "5__C2___", "5__C3___", "5__C4_A__", "5__C4_B__", "5__C5___", "5__C7___", "5__C8___", "5__C9___"], "mode": "cercanias"}}, {"type": "Feature", "geometry": {"type": "Point", "coordinates": [-3.70918, 40.49971]}, "properties": {"stop_id": "par_5_145", "stop_name": "MIRASIERRA-PACO DE LUCÍA", "routes": ["5__C10___", "5__C1___", "5__C2___", "5__C3___", "5__C4_A__", "5__C4_B__", "5__C5___", "5__C7___", "5__C8___", "5__C9___"], "mode": "cercanias"}}, {"type": "Feature", "geometry": {"type": "Point", "coordinates": [-3.84534, 40.47428]}, "properties": {"stop_id": "par_5_42", "stop_name": "MAJADAHONDA", "routes": ["5__C10___", "5__C1___", "5__C2___", "5__C3___", "5__C4_A__", "5__C4_B__", "5__C5___", "5__C7___", "5__C8___", "5__C9___"], "mode": "cercanias"}}, {"type": "Feature", "geometry": {"type": "Point", "coordinates": [-3.72584, 40.4951]}, "properties": {"stop_id": "par_5_58", "stop_name": "PITIS", "routes": ["5__C10___", "5__C1___", "5__C2___", "5__C3___", "5__C4_A__", "5__C4_B__", "5__C5___", "5__C7___", "5__C8___", "5__C9___"], "mode": "cercanias"}}, {"type": "Feature", "geometry": {"type": "Point", "coordinates": [-3.80012, 40.44727]}, "properties": {"stop_id": "par_5_60", "stop_name": "POZUELO", "routes": ["5__C10___", "5__C1___", "5__C2___", "5__C3___", "5__C4_A__", "5__C4_B__", "5__C5___", "5__C7___", "5__C8___", "5__C9___"], "mode": "cercanias"}}, {"type": "Feature", "geometry": {"type": "Point", "coordinates": [-3.69473, 40.48824]}, "properties": {"stop_id": "par_5_64", "stop_name": "RAMÓN Y CAJAL", "routes": ["5__C10___", "5__C1___", "5__C2___", "5__C3___", "5__C4_A__", "5__C4_B__", "5__C5___", "5__C7___", "5__C8___", "5__C9___"], "mode": "cercanias"}}, {"type": "Feature", "geometry": {"type": "Point", "coordinates": [-3.86812, 40.49423]}, "properties": {"stop_id": "par_5_68", "stop_name": "ROZAS LAS", "routes": ["5__C10___", "5__C1___", "5__C2___", "5__C3___", "5__C4_A__", "5__C4_B__", "5__C5___", "5__C7___", "5__C8___", "5__C9___"], "mode": "cercanias"}}, {"type": "Feature", "geometry": {"type": "Point", "coordinates": [-3.78586, 40.44833]}, "properties": {"stop_id": "par_5_9", "stop_name": "ARAVACA", "routes": ["5__C10___", "5__C1___", "5__C2___", "5__C3___", "5__C4_A__", "5__C4_B__", "5__C5___", "5__C7___", "5__C8___", "5__C9___"], "mode": "cercanias"}}, {"type": "Feature", "geometry": {"type": "Point", "coordinates": [-4.0659, 40.73757]}, "properties": {"stop_id": "par_5_16", "stop_name": "CERCEDILLA", "routes": ["5__C10___", "5__C1___", "5__C2___", "5__C3___", "5__C4_A__", "5__C4_B__", "5__C5___", "5__C7___", "5__C8___", "5__C9___"], "mode": "cercanias"}}, {"type": "Feature", "geometry": {"type": "Point", "coordinates": [-4.03587, 40.69276]}, "properties": {"stop_id": "par_5_20", "stop_name": "COLLADO MEDIANO", "routes": ["5__C10___", "5__C1___", "5__C2___", "5__C3___", "5__C4_A__", "5__C4_B__", "5__C5___", "5__C7___", "5__C8___", "5__C9___"], "mode": "cercanias"}}, {"type": "Feature", "geometry": {"type": "Point", "coordinates": [-3.98185, 40.60011]}, "properties": {"stop_id": "par_5_33", "stop_name": "GALAPAGAR-LA NAVATA", "routes": ["5__C10___", "5__C1___", "5__C2___", "5__C3___", "5__C4_A__", "5__C4_B__", "5__C5___", "5__C7___", "5__C8___", "5__C9___"], "mode": "cercanias"}}, {"type": "Feature", "geometry": {"type": "Point", "coordinates": [-3.89683, 40.55252]}, "properties": {"stop_id": "par_5_44", "stop_name": "MATAS LAS", "routes": ["5__C10___", "5__C1___", "5__C2___", "5__C3___", "5__C4_A__", "5__C4_B__", "5__C5___", "5__C7___", "5__C8___", "5__C9___"], "mode": "cercanias"}}, {"type": "Feature", "geometry": {"type": "Point", "coordinates": [-4.06681, 40.70734]}, "properties": {"stop_id": "par_5_47", "stop_name": "MOLINOS LOS", "routes": ["5__C10___", "5__C1___", "5__C2___", "5__C3___", "5__C4_A__", "5__C4_B__", "5__C5___", "5__C7___", "5__C8___", "5__C9___"], "mode": "cercanias"}}, {"type": "Feature", "geometry": {"type": "Point", "coordinates": [-4.02189, 40.63858]}, "properties": {"stop_id": "par_5_50", "stop_name": "NEGRALES LOS", "routes": ["5__C10___", "5__C1___", "5__C2___", "5__C3___", "5__C4_A__", "5__C4_B__", "5__C5___", "5__C7___", "5__C8___", "5__C9___"], "mode": "cercanias"}}, {"type": "Feature", "geometry": {"type": "Point", "coordinates": [-3.88216, 40.5223]}, "properties": {"stop_id": "par_5_55", "stop_name": "PINAR DE LAS ROZAS", "routes": ["5__C10___", "5__C1___", "5__C2___", "5__C3___", "5__C4_A__", "5__C4_B__", "5__C5___", "5__C7___", "5__C8___", "5__C9___"], "mode": "cercanias"}}, {"type": "Feature", "geometry": {"type": "Point", "coordinates": [-4.03506, 40.65816]}, "properties": {"stop_id": "par_5_6", "stop_name": "ALPEDRETE", "routes": ["5__C10___", "5__C1___", "5__C2___", "5__C3___", "5__C4_A__", "5__C4_B__", "5__C5___", "5__C7___", "5__C8___", "5__C9___"], "mode": "cercanias"}}, {"type": "Feature", "geometry": {"type": "Point", "coordinates": [-3.95654, 40.57451]}, "properties": {"stop_id": "par_5_82", "stop_name": "TORRELODONES", "routes": ["5__C10___", "5__C1___", "5__C2___", "5__C3___", "5__C4_A__", "5__C4_B__", "5__C5___", "5__C7___", "5__C8___", "5__C9___"], "mode": "cercanias"}}, {"type": "Feature", "geometry": {"type": "Point", "coordinates": [-4.0081, 40.62637]}, "properties": {"stop_id": "par_5_91", "stop_name": "VILLALBA", "routes": ["5__C10___", "5__C1___", "5__C2___", "5__C3___", "5__C4_A__", "5__C4_B__", "5__C5___", "5__C7___", "5__C8___", "5__C9___"], "mode": "cercanias"}}, {"type": "Feature", "geometry": {"type": "Point", "coordinates": [-3.96452, 40.82226]}, "properties": {"stop_id": "par_5_23", "stop_name": "COTOS", "routes": ["5__C10___", "5__C1___", "5__C2___", "5__C3___", "5__C4_A__", "5__C4_B__", "5__C5___", "5__C7___", "5__C8___", "5__C9___"], "mode": "cercanias"}}, {"type": "Feature", "geometry": {"type": "Point", "coordinates": [-4.00473, 40.78441]}, "properties": {"stop_id": "par_5_63", "stop_name": "PUERTO NAVACERRADA", "routes": ["5__C10___", "5__C1___", "5__C2___", "5__C3___", "5__C4_A__", "5__C4_B__", "5__C5___", "5__C7___", "5__C8___", "5__C9___"], "mode": "cercanias"}}]}